<?xml version="1.0" encoding="UTF-8"?>
<gpx creator="https://gpx.studio" version="1.1" xmlns="http://www.topografix.com/GPX/1/1" xmlns:xsi="http://www.w3.org/2001/XMLSchema-instance" xsi:schemaLocation="http://www.topografix.com/GPX/1/1 http://www.topografix.com/GPX/1/1/gpx.xsd http://www.garmin.com/xmlschemas/GpxExtensions/v3 http://www.garmin.com/xmlschemas/GpxExtensionsv3.xsd http://www.garmin.com/xmlschemas/TrackPointExtension/v1 http://www.garmin.com/xmlschemas/TrackPointExtensionv1.xsd http://www.garmin.com/xmlschemas/PowerExtension/v1 http://www.garmin.com/xmlschemas/PowerExtensionv1.xsd http://www.topografix.com/GPX/gpx_style/0/2 http://www.topografix.com/GPX/gpx_style/0/2/gpx_style.xsd" xmlns:gpxtpx="http://www.garmin.com/xmlschemas/TrackPointExtension/v1" xmlns:gpxx="http://www.garmin.com/xmlschemas/GpxExtensions/v3" xmlns:gpxpx="http://www.garmin.com/xmlschemas/PowerExtension/v1" xmlns:gpx_style="http://www.topografix.com/GPX/gpx_style/0/2">
  <metadata>
    <name>New file 1</name>
    <author>
      <name>gpx.studio</name>
      <link href="https://gpx.studio"/>
    </author>
  </metadata>
  <trk>
    <name>New file 1</name>
    <trkseg>
      <trkpt lat="40.75332978952997" lon="-74.00983377898434">
        <ele>0</ele>
        <time>2026-05-06T15:00:00.000Z</time>
      </trkpt>
      <trkpt lat="40.75320892753005" lon="-74.01040551742364">
        <ele>0</ele>
        <time>2026-05-06T15:00:22.369Z</time>
      </trkpt>
      <trkpt lat="40.753088065530136" lon="-74.01097725586293">
        <ele>0</ele>
        <time>2026-05-06T15:00:44.738Z</time>
      </trkpt>
      <trkpt lat="40.75298913560916" lon="-74.01144524446696">
        <ele>0</ele>
        <time>2026-05-06T15:01:03.048Z</time>
      </trkpt>
      <trkpt lat="40.752967203530226" lon="-74.01154899430222">
        <ele>0</ele>
        <time>2026-05-06T15:01:07.107Z</time>
      </trkpt>
      <trkpt lat="40.75284634153031" lon="-74.01212073274151">
        <ele>0</ele>
        <time>2026-05-06T15:01:29.477Z</time>
      </trkpt>
      <trkpt lat="40.75272547953039" lon="-74.0126924711808">
        <ele>0</ele>
        <time>2026-05-06T15:01:51.847Z</time>
      </trkpt>
      <trkpt lat="40.75260461753047" lon="-74.01326420962009">
        <ele>0</ele>
        <time>2026-05-06T15:02:14.217Z</time>
      </trkpt>
      <trkpt lat="40.75248375553056" lon="-74.01383594805937">
        <ele>0</ele>
        <time>2026-05-06T15:02:36.587Z</time>
      </trkpt>
      <trkpt lat="40.752362893530645" lon="-74.01440768649866">
        <ele>0</ele>
        <time>2026-05-06T15:02:58.957Z</time>
      </trkpt>
      <trkpt lat="40.75224203153073" lon="-74.01497942493795">
        <ele>0</ele>
        <time>2026-05-06T15:03:21.327Z</time>
      </trkpt>
      <trkpt lat="40.75212116953081" lon="-74.01555116337724">
        <ele>0</ele>
        <time>2026-05-06T15:03:43.697Z</time>
      </trkpt>
      <trkpt lat="40.7520003075309" lon="-74.01612290181653">
        <ele>0</ele>
        <time>2026-05-06T15:04:06.067Z</time>
      </trkpt>
      <trkpt lat="40.75187944553098" lon="-74.01669464025582">
        <ele>0</ele>
        <time>2026-05-06T15:04:28.437Z</time>
      </trkpt>
      <trkpt lat="40.751758583531064" lon="-74.01726637869511">
        <ele>0</ele>
        <time>2026-05-06T15:04:50.807Z</time>
      </trkpt>
      <trkpt lat="40.75166552810245" lon="-74.01770657797661">
        <ele>0</ele>
        <time>2026-05-06T15:05:08.030Z</time>
      </trkpt>
      <trkpt lat="40.75127549255417" lon="-74.01741122037798">
        <ele>0</ele>
        <time>2026-05-06T15:05:30.399Z</time>
      </trkpt>
      <trkpt lat="40.750885457005886" lon="-74.01711586277935">
        <ele>0</ele>
        <time>2026-05-06T15:05:52.769Z</time>
      </trkpt>
      <trkpt lat="40.75049542145761" lon="-74.01682050518072">
        <ele>0</ele>
        <time>2026-05-06T15:06:15.139Z</time>
      </trkpt>
      <trkpt lat="40.75010538590933" lon="-74.01652514758209">
        <ele>0</ele>
        <time>2026-05-06T15:06:37.509Z</time>
      </trkpt>
      <trkpt lat="40.74971535036104" lon="-74.01622978998346">
        <ele>0</ele>
        <time>2026-05-06T15:06:59.879Z</time>
      </trkpt>
      <trkpt lat="40.749325314812765" lon="-74.01593443238482">
        <ele>0</ele>
        <time>2026-05-06T15:07:22.249Z</time>
      </trkpt>
      <trkpt lat="40.74893527926448" lon="-74.0156390747862">
        <ele>0</ele>
        <time>2026-05-06T15:07:44.619Z</time>
      </trkpt>
      <trkpt lat="40.7485452437162" lon="-74.01534371718756">
        <ele>0</ele>
        <time>2026-05-06T15:08:06.989Z</time>
      </trkpt>
      <trkpt lat="40.74815520816792" lon="-74.01504835958892">
        <ele>0</ele>
        <time>2026-05-06T15:08:29.359Z</time>
      </trkpt>
      <trkpt lat="40.74776517261964" lon="-74.01475300199029">
        <ele>0</ele>
        <time>2026-05-06T15:08:51.729Z</time>
      </trkpt>
      <trkpt lat="40.74737513707136" lon="-74.01445764439165">
        <ele>0</ele>
        <time>2026-05-06T15:09:14.099Z</time>
      </trkpt>
      <trkpt lat="40.74698510152308" lon="-74.01416228679302">
        <ele>0</ele>
        <time>2026-05-06T15:09:36.469Z</time>
      </trkpt>
      <trkpt lat="40.746595065974795" lon="-74.01386692919439">
        <ele>0</ele>
        <time>2026-05-06T15:09:58.839Z</time>
      </trkpt>
      <trkpt lat="40.74656042479327" lon="-74.01384069687728">
        <ele>0</ele>
        <time>2026-05-06T15:10:00.825Z</time>
      </trkpt>
      <trkpt lat="40.746559041607654" lon="-74.01443422317905">
        <ele>0</ele>
        <time>2026-05-06T15:10:23.195Z</time>
      </trkpt>
      <trkpt lat="40.74655765842204" lon="-74.01502774948084">
        <ele>0</ele>
        <time>2026-05-06T15:10:45.565Z</time>
      </trkpt>
      <trkpt lat="40.74655627523642" lon="-74.0156212757826">
        <ele>0</ele>
        <time>2026-05-06T15:11:07.935Z</time>
      </trkpt>
      <trkpt lat="40.74655489205081" lon="-74.01621480208438">
        <ele>0</ele>
        <time>2026-05-06T15:11:30.305Z</time>
      </trkpt>
      <trkpt lat="40.74655350886519" lon="-74.01680832838615">
        <ele>0</ele>
        <time>2026-05-06T15:11:52.675Z</time>
      </trkpt>
      <trkpt lat="40.74655212567958" lon="-74.01740185468793">
        <ele>0</ele>
        <time>2026-05-06T15:12:15.045Z</time>
      </trkpt>
      <trkpt lat="40.74655074249396" lon="-74.0179953809897">
        <ele>0</ele>
        <time>2026-05-06T15:12:37.415Z</time>
      </trkpt>
      <trkpt lat="40.74654935930835" lon="-74.01858890729147">
        <ele>0</ele>
        <time>2026-05-06T15:12:59.785Z</time>
      </trkpt>
      <trkpt lat="40.74654797612273" lon="-74.01918243359324">
        <ele>0</ele>
        <time>2026-05-06T15:13:22.155Z</time>
      </trkpt>
      <trkpt lat="40.746546592937115" lon="-74.01977595989503">
        <ele>0</ele>
        <time>2026-05-06T15:13:44.525Z</time>
      </trkpt>
      <trkpt lat="40.746545209751496" lon="-74.0203694861968">
        <ele>0</ele>
        <time>2026-05-06T15:14:06.895Z</time>
      </trkpt>
      <trkpt lat="40.74654454368496" lon="-74.02065529599864">
        <ele>0</ele>
        <time>2026-05-06T15:14:17.667Z</time>
      </trkpt>
      <trkpt lat="40.7461667068805" lon="-74.02033352044832">
        <ele>0</ele>
        <time>2026-05-06T15:14:40.036Z</time>
      </trkpt>
      <trkpt lat="40.74578887007605" lon="-74.02001174489799">
        <ele>0</ele>
        <time>2026-05-06T15:15:02.405Z</time>
      </trkpt>
      <trkpt lat="40.74541103327159" lon="-74.01968996934767">
        <ele>0</ele>
        <time>2026-05-06T15:15:24.774Z</time>
      </trkpt>
      <trkpt lat="40.745033196467126" lon="-74.01936819379733">
        <ele>0</ele>
        <time>2026-05-06T15:15:47.143Z</time>
      </trkpt>
      <trkpt lat="40.744655359662666" lon="-74.01904641824702">
        <ele>0</ele>
        <time>2026-05-06T15:16:09.513Z</time>
      </trkpt>
      <trkpt lat="40.74427752285821" lon="-74.0187246426967">
        <ele>0</ele>
        <time>2026-05-06T15:16:31.883Z</time>
      </trkpt>
      <trkpt lat="40.74389968605375" lon="-74.01840286714636">
        <ele>0</ele>
        <time>2026-05-06T15:16:54.253Z</time>
      </trkpt>
      <trkpt lat="40.74352184924929" lon="-74.01808109159604">
        <ele>0</ele>
        <time>2026-05-06T15:17:16.623Z</time>
      </trkpt>
      <trkpt lat="40.74314401244484" lon="-74.01775931604571">
        <ele>0</ele>
        <time>2026-05-06T15:17:38.993Z</time>
      </trkpt>
      <trkpt lat="40.74276617564038" lon="-74.0174375404954">
        <ele>0</ele>
        <time>2026-05-06T15:18:01.363Z</time>
      </trkpt>
      <trkpt lat="40.742388338835916" lon="-74.01711576494507">
        <ele>0</ele>
        <time>2026-05-06T15:18:23.733Z</time>
      </trkpt>
      <trkpt lat="40.742010502031455" lon="-74.01679398939474">
        <ele>0</ele>
        <time>2026-05-06T15:18:46.103Z</time>
      </trkpt>
      <trkpt lat="40.741632665227" lon="-74.01647221384442">
        <ele>0</ele>
        <time>2026-05-06T15:19:08.473Z</time>
      </trkpt>
      <trkpt lat="40.74125482842254" lon="-74.01615043829409">
        <ele>0</ele>
        <time>2026-05-06T15:19:30.843Z</time>
      </trkpt>
      <trkpt lat="40.74087699161808" lon="-74.01582866274377">
        <ele>0</ele>
        <time>2026-05-06T15:19:53.213Z</time>
      </trkpt>
      <trkpt lat="40.74049915481363" lon="-74.01550688719345">
        <ele>0</ele>
        <time>2026-05-06T15:20:15.583Z</time>
      </trkpt>
      <trkpt lat="40.74022874641841" lon="-74.01527660044225">
        <ele>0</ele>
        <time>2026-05-06T15:20:31.592Z</time>
      </trkpt>
      <trkpt lat="40.73994544014222" lon="-74.01573744972164">
        <ele>0</ele>
        <time>2026-05-06T15:20:53.961Z</time>
      </trkpt>
      <trkpt lat="40.73966213386603" lon="-74.01619829900103">
        <ele>0</ele>
        <time>2026-05-06T15:21:16.330Z</time>
      </trkpt>
      <trkpt lat="40.73937882758984" lon="-74.01665914828041">
        <ele>0</ele>
        <time>2026-05-06T15:21:38.699Z</time>
      </trkpt>
      <trkpt lat="40.739095521313644" lon="-74.0171199975598">
        <ele>0</ele>
        <time>2026-05-06T15:22:01.068Z</time>
      </trkpt>
      <trkpt lat="40.738812215037456" lon="-74.0175808468392">
        <ele>0</ele>
        <time>2026-05-06T15:22:23.437Z</time>
      </trkpt>
      <trkpt lat="40.73852890876126" lon="-74.01804169611859">
        <ele>0</ele>
        <time>2026-05-06T15:22:45.806Z</time>
      </trkpt>
      <trkpt lat="40.73824560248507" lon="-74.01850254539796">
        <ele>0</ele>
        <time>2026-05-06T15:23:08.176Z</time>
      </trkpt>
      <trkpt lat="40.73796229620888" lon="-74.01896339467736">
        <ele>0</ele>
        <time>2026-05-06T15:23:30.546Z</time>
      </trkpt>
      <trkpt lat="40.73767898993269" lon="-74.01942424395675">
        <ele>0</ele>
        <time>2026-05-06T15:23:52.916Z</time>
      </trkpt>
      <trkpt lat="40.737395683656494" lon="-74.01988509323614">
        <ele>0</ele>
        <time>2026-05-06T15:24:15.286Z</time>
      </trkpt>
      <trkpt lat="40.737112377380306" lon="-74.02034594251552">
        <ele>0</ele>
        <time>2026-05-06T15:24:37.656Z</time>
      </trkpt>
      <trkpt lat="40.73682907110412" lon="-74.02080679179491">
        <ele>0</ele>
        <time>2026-05-06T15:25:00.026Z</time>
      </trkpt>
      <trkpt lat="40.73654576482792" lon="-74.0212676410743">
        <ele>0</ele>
        <time>2026-05-06T15:25:22.396Z</time>
      </trkpt>
      <trkpt lat="40.736262458551735" lon="-74.0217284903537">
        <ele>0</ele>
        <time>2026-05-06T15:25:44.766Z</time>
      </trkpt>
      <trkpt lat="40.73597915227554" lon="-74.02218933963309">
        <ele>0</ele>
        <time>2026-05-06T15:26:07.136Z</time>
      </trkpt>
      <trkpt lat="40.73569584599935" lon="-74.02265018891246">
        <ele>0</ele>
        <time>2026-05-06T15:26:29.506Z</time>
      </trkpt>
      <trkpt lat="40.73541253972316" lon="-74.02311103819186">
        <ele>0</ele>
        <time>2026-05-06T15:26:51.876Z</time>
      </trkpt>
      <trkpt lat="40.73534598846237" lon="-74.02321929594382">
        <ele>0</ele>
        <time>2026-05-06T15:26:57.131Z</time>
      </trkpt>
      <trkpt lat="40.73490779721622" lon="-74.02308613399566">
        <ele>0</ele>
        <time>2026-05-06T15:27:19.501Z</time>
      </trkpt>
      <trkpt lat="40.734469605970084" lon="-74.02295297204749">
        <ele>0</ele>
        <time>2026-05-06T15:27:41.871Z</time>
      </trkpt>
      <trkpt lat="40.73403141472394" lon="-74.02281981009934">
        <ele>0</ele>
        <time>2026-05-06T15:28:04.241Z</time>
      </trkpt>
      <trkpt lat="40.7335932234778" lon="-74.02268664815116">
        <ele>0</ele>
        <time>2026-05-06T15:28:26.611Z</time>
      </trkpt>
      <trkpt lat="40.73315503223165" lon="-74.02255348620301">
        <ele>0</ele>
        <time>2026-05-06T15:28:48.981Z</time>
      </trkpt>
      <trkpt lat="40.73271684098551" lon="-74.02242032425484">
        <ele>0</ele>
        <time>2026-05-06T15:29:11.351Z</time>
      </trkpt>
      <trkpt lat="40.732278649739364" lon="-74.02228716230668">
        <ele>0</ele>
        <time>2026-05-06T15:29:33.721Z</time>
      </trkpt>
      <trkpt lat="40.731840458493224" lon="-74.02215400035851">
        <ele>0</ele>
        <time>2026-05-06T15:29:56.091Z</time>
      </trkpt>
      <trkpt lat="40.73140226724708" lon="-74.02202083841036">
        <ele>0</ele>
        <time>2026-05-06T15:30:18.461Z</time>
      </trkpt>
      <trkpt lat="40.73096407600093" lon="-74.02188767646219">
        <ele>0</ele>
        <time>2026-05-06T15:30:40.831Z</time>
      </trkpt>
      <trkpt lat="40.73052588475479" lon="-74.02175451451403">
        <ele>0</ele>
        <time>2026-05-06T15:31:03.201Z</time>
      </trkpt>
      <trkpt lat="40.730087693508644" lon="-74.02162135256586">
        <ele>0</ele>
        <time>2026-05-06T15:31:25.571Z</time>
      </trkpt>
      <trkpt lat="40.729649502262504" lon="-74.0214881906177">
        <ele>0</ele>
        <time>2026-05-06T15:31:47.941Z</time>
      </trkpt>
      <trkpt lat="40.72921131101636" lon="-74.02135502866953">
        <ele>0</ele>
        <time>2026-05-06T15:32:10.311Z</time>
      </trkpt>
      <trkpt lat="40.72877311977022" lon="-74.02122186672138">
        <ele>0</ele>
        <time>2026-05-06T15:32:32.681Z</time>
      </trkpt>
      <trkpt lat="40.72833492852407" lon="-74.0210887047732">
        <ele>0</ele>
        <time>2026-05-06T15:32:55.051Z</time>
      </trkpt>
      <trkpt lat="40.72789673727793" lon="-74.02095554282505">
        <ele>0</ele>
        <time>2026-05-06T15:33:17.421Z</time>
      </trkpt>
      <trkpt lat="40.727458546031784" lon="-74.02082238087688">
        <ele>0</ele>
        <time>2026-05-06T15:33:39.791Z</time>
      </trkpt>
      <trkpt lat="40.72702035478564" lon="-74.02068921892872">
        <ele>0</ele>
        <time>2026-05-06T15:34:02.161Z</time>
      </trkpt>
      <trkpt lat="40.7265821635395" lon="-74.02055605698055">
        <ele>0</ele>
        <time>2026-05-06T15:34:24.531Z</time>
      </trkpt>
      <trkpt lat="40.72614397229335" lon="-74.0204228950324">
        <ele>0</ele>
        <time>2026-05-06T15:34:46.901Z</time>
      </trkpt>
      <trkpt lat="40.72570578104721" lon="-74.02028973308423">
        <ele>0</ele>
        <time>2026-05-06T15:35:09.271Z</time>
      </trkpt>
      <trkpt lat="40.725267589801064" lon="-74.02015657113607">
        <ele>0</ele>
        <time>2026-05-06T15:35:31.641Z</time>
      </trkpt>
      <trkpt lat="40.724829398554924" lon="-74.0200234091879">
        <ele>0</ele>
        <time>2026-05-06T15:35:54.011Z</time>
      </trkpt>
      <trkpt lat="40.72439120730878" lon="-74.01989024723974">
        <ele>0</ele>
        <time>2026-05-06T15:36:16.381Z</time>
      </trkpt>
      <trkpt lat="40.724317355249326" lon="-74.01986780433565">
        <ele>0</ele>
        <time>2026-05-06T15:36:20.151Z</time>
      </trkpt>
      <trkpt lat="40.7239275776363" lon="-74.02016362211721">
        <ele>0</ele>
        <time>2026-05-06T15:36:42.520Z</time>
      </trkpt>
      <trkpt lat="40.72353780002329" lon="-74.02045943989876">
        <ele>0</ele>
        <time>2026-05-06T15:37:04.889Z</time>
      </trkpt>
      <trkpt lat="40.723148022410264" lon="-74.02075525768032">
        <ele>0</ele>
        <time>2026-05-06T15:37:27.258Z</time>
      </trkpt>
      <trkpt lat="40.72275824479725" lon="-74.02105107546188">
        <ele>0</ele>
        <time>2026-05-06T15:37:49.627Z</time>
      </trkpt>
      <trkpt lat="40.722368467184225" lon="-74.02134689324345">
        <ele>0</ele>
        <time>2026-05-06T15:38:11.996Z</time>
      </trkpt>
      <trkpt lat="40.72197868957121" lon="-74.021642711025">
        <ele>0</ele>
        <time>2026-05-06T15:38:34.365Z</time>
      </trkpt>
      <trkpt lat="40.721588911958186" lon="-74.02193852880656">
        <ele>0</ele>
        <time>2026-05-06T15:38:56.734Z</time>
      </trkpt>
      <trkpt lat="40.72119913434516" lon="-74.02223434658812">
        <ele>0</ele>
        <time>2026-05-06T15:39:19.104Z</time>
      </trkpt>
      <trkpt lat="40.72080935673215" lon="-74.02253016436968">
        <ele>0</ele>
        <time>2026-05-06T15:39:41.474Z</time>
      </trkpt>
      <trkpt lat="40.720419579119124" lon="-74.02282598215123">
        <ele>0</ele>
        <time>2026-05-06T15:40:03.844Z</time>
      </trkpt>
      <trkpt lat="40.72002980150611" lon="-74.0231217999328">
        <ele>0</ele>
        <time>2026-05-06T15:40:26.214Z</time>
      </trkpt>
      <trkpt lat="40.719640023893085" lon="-74.02341761771436">
        <ele>0</ele>
        <time>2026-05-06T15:40:48.584Z</time>
      </trkpt>
      <trkpt lat="40.71925024628007" lon="-74.02371343549592">
        <ele>0</ele>
        <time>2026-05-06T15:41:10.954Z</time>
      </trkpt>
      <trkpt lat="40.718860468667046" lon="-74.02400925327747">
        <ele>0</ele>
        <time>2026-05-06T15:41:33.324Z</time>
      </trkpt>
      <trkpt lat="40.71847069105402" lon="-74.02430507105903">
        <ele>0</ele>
        <time>2026-05-06T15:41:55.694Z</time>
      </trkpt>
      <trkpt lat="40.71808091344101" lon="-74.0246008888406">
        <ele>0</ele>
        <time>2026-05-06T15:42:18.064Z</time>
      </trkpt>
      <trkpt lat="40.717691135827984" lon="-74.02489670662216">
        <ele>0</ele>
        <time>2026-05-06T15:42:40.434Z</time>
      </trkpt>
      <trkpt lat="40.71730135821497" lon="-74.0251925244037">
        <ele>0</ele>
        <time>2026-05-06T15:43:02.804Z</time>
      </trkpt>
      <trkpt lat="40.716911580601945" lon="-74.02548834218527">
        <ele>0</ele>
        <time>2026-05-06T15:43:25.174Z</time>
      </trkpt>
      <trkpt lat="40.71652180298892" lon="-74.02578415996683">
        <ele>0</ele>
        <time>2026-05-06T15:43:47.544Z</time>
      </trkpt>
      <trkpt lat="40.716132025375906" lon="-74.0260799777484">
        <ele>0</ele>
        <time>2026-05-06T15:44:09.914Z</time>
      </trkpt>
      <trkpt lat="40.71574224776288" lon="-74.02637579552994">
        <ele>0</ele>
        <time>2026-05-06T15:44:32.284Z</time>
      </trkpt>
      <trkpt lat="40.71535247014987" lon="-74.0266716133115">
        <ele>0</ele>
        <time>2026-05-06T15:44:54.654Z</time>
      </trkpt>
      <trkpt lat="40.714962692536844" lon="-74.02696743109307">
        <ele>0</ele>
        <time>2026-05-06T15:45:17.024Z</time>
      </trkpt>
      <trkpt lat="40.71457291492383" lon="-74.02726324887463">
        <ele>0</ele>
        <time>2026-05-06T15:45:39.394Z</time>
      </trkpt>
      <trkpt lat="40.71431214921944" lon="-74.02746115437151">
        <ele>0</ele>
        <time>2026-05-06T15:45:54.360Z</time>
      </trkpt>
      <trkpt lat="40.71397738948978" lon="-74.02785722339824">
        <ele>0</ele>
        <time>2026-05-06T15:46:16.729Z</time>
      </trkpt>
      <trkpt lat="40.71364262976011" lon="-74.02825329242496">
        <ele>0</ele>
        <time>2026-05-06T15:46:39.098Z</time>
      </trkpt>
      <trkpt lat="40.71330787003045" lon="-74.0286493614517">
        <ele>0</ele>
        <time>2026-05-06T15:47:01.468Z</time>
      </trkpt>
      <trkpt lat="40.71297311030078" lon="-74.02904543047843">
        <ele>0</ele>
        <time>2026-05-06T15:47:23.838Z</time>
      </trkpt>
      <trkpt lat="40.71263835057112" lon="-74.02944149950517">
        <ele>0</ele>
        <time>2026-05-06T15:47:46.208Z</time>
      </trkpt>
      <trkpt lat="40.71230359084145" lon="-74.02983756853189">
        <ele>0</ele>
        <time>2026-05-06T15:48:08.578Z</time>
      </trkpt>
      <trkpt lat="40.71196883111179" lon="-74.03023363755862">
        <ele>0</ele>
        <time>2026-05-06T15:48:30.948Z</time>
      </trkpt>
      <trkpt lat="40.71163407138212" lon="-74.03062970658536">
        <ele>0</ele>
        <time>2026-05-06T15:48:53.318Z</time>
      </trkpt>
      <trkpt lat="40.71129931165246" lon="-74.0310257756121">
        <ele>0</ele>
        <time>2026-05-06T15:49:15.688Z</time>
      </trkpt>
      <trkpt lat="40.71096455192279" lon="-74.03142184463881">
        <ele>0</ele>
        <time>2026-05-06T15:49:38.058Z</time>
      </trkpt>
      <trkpt lat="40.7107980539561" lon="-74.03161883573954">
        <ele>0</ele>
        <time>2026-05-06T15:49:49.184Z</time>
      </trkpt>
      <trkpt lat="40.71037319313732" lon="-74.03142456016144">
        <ele>0</ele>
        <time>2026-05-06T15:50:11.554Z</time>
      </trkpt>
      <trkpt lat="40.70994833231854" lon="-74.03123028458334">
        <ele>0</ele>
        <time>2026-05-06T15:50:33.924Z</time>
      </trkpt>
      <trkpt lat="40.709523471499764" lon="-74.03103600900525">
        <ele>0</ele>
        <time>2026-05-06T15:50:56.294Z</time>
      </trkpt>
      <trkpt lat="40.70909861068098" lon="-74.03084173342715">
        <ele>0</ele>
        <time>2026-05-06T15:51:18.664Z</time>
      </trkpt>
      <trkpt lat="40.70867374986221" lon="-74.03064745784906">
        <ele>0</ele>
        <time>2026-05-06T15:51:41.034Z</time>
      </trkpt>
      <trkpt lat="40.708248889043425" lon="-74.03045318227096">
        <ele>0</ele>
        <time>2026-05-06T15:52:03.404Z</time>
      </trkpt>
      <trkpt lat="40.70782402822465" lon="-74.03025890669285">
        <ele>0</ele>
        <time>2026-05-06T15:52:25.774Z</time>
      </trkpt>
      <trkpt lat="40.70739916740587" lon="-74.03006463111475">
        <ele>0</ele>
        <time>2026-05-06T15:52:48.144Z</time>
      </trkpt>
      <trkpt lat="40.707295278278764" lon="-74.03001712586284">
        <ele>0</ele>
        <time>2026-05-06T15:52:53.614Z</time>
      </trkpt>
      <trkpt lat="40.707023987729606" lon="-74.02954407724674">
        <ele>0</ele>
        <time>2026-05-06T15:53:15.983Z</time>
      </trkpt>
      <trkpt lat="40.70675269718045" lon="-74.02907102863063">
        <ele>0</ele>
        <time>2026-05-06T15:53:38.352Z</time>
      </trkpt>
      <trkpt lat="40.70648140663128" lon="-74.02859798001452">
        <ele>0</ele>
        <time>2026-05-06T15:54:00.722Z</time>
      </trkpt>
      <trkpt lat="40.706210116082126" lon="-74.02812493139841">
        <ele>0</ele>
        <time>2026-05-06T15:54:23.092Z</time>
      </trkpt>
      <trkpt lat="40.70593882553297" lon="-74.02765188278231">
        <ele>0</ele>
        <time>2026-05-06T15:54:45.462Z</time>
      </trkpt>
      <trkpt lat="40.70566753498381" lon="-74.0271788341662">
        <ele>0</ele>
        <time>2026-05-06T15:55:07.832Z</time>
      </trkpt>
      <trkpt lat="40.705396244434645" lon="-74.02670578555009">
        <ele>0</ele>
        <time>2026-05-06T15:55:30.202Z</time>
      </trkpt>
      <trkpt lat="40.70512495388549" lon="-74.02623273693398">
        <ele>0</ele>
        <time>2026-05-06T15:55:52.572Z</time>
      </trkpt>
      <trkpt lat="40.70485366333633" lon="-74.02575968831788">
        <ele>0</ele>
        <time>2026-05-06T15:56:14.942Z</time>
      </trkpt>
      <trkpt lat="40.70458237278717" lon="-74.02528663970178">
        <ele>0</ele>
        <time>2026-05-06T15:56:37.312Z</time>
      </trkpt>
      <trkpt lat="40.70457218477918" lon="-74.02526887489907">
        <ele>0</ele>
        <time>2026-05-06T15:56:38.152Z</time>
      </trkpt>
      <trkpt lat="40.70420141450501" lon="-74.02493328879659">
        <ele>0</ele>
        <time>2026-05-06T15:57:00.522Z</time>
      </trkpt>
      <trkpt lat="40.703830644230834" lon="-74.02459770269411">
        <ele>0</ele>
        <time>2026-05-06T15:57:22.892Z</time>
      </trkpt>
      <trkpt lat="40.70345987395665" lon="-74.02426211659164">
        <ele>0</ele>
        <time>2026-05-06T15:57:45.262Z</time>
      </trkpt>
      <trkpt lat="40.70308910368248" lon="-74.02392653048916">
        <ele>0</ele>
        <time>2026-05-06T15:58:07.632Z</time>
      </trkpt>
      <trkpt lat="40.702718333408306" lon="-74.02359094438668">
        <ele>0</ele>
        <time>2026-05-06T15:58:30.002Z</time>
      </trkpt>
      <trkpt lat="40.70234756313413" lon="-74.0232553582842">
        <ele>0</ele>
        <time>2026-05-06T15:58:52.372Z</time>
      </trkpt>
      <trkpt lat="40.70197679285996" lon="-74.02291977218172">
        <ele>0</ele>
        <time>2026-05-06T15:59:14.742Z</time>
      </trkpt>
      <trkpt lat="40.70160602258578" lon="-74.02258418607926">
        <ele>0</ele>
        <time>2026-05-06T15:59:37.112Z</time>
      </trkpt>
      <trkpt lat="40.701235252311605" lon="-74.02224859997678">
        <ele>0</ele>
        <time>2026-05-06T15:59:59.482Z</time>
      </trkpt>
      <trkpt lat="40.70110954611968" lon="-74.02213482264902">
        <ele>0</ele>
        <time>2026-05-06T16:00:07.066Z</time>
      </trkpt>
      <trkpt lat="40.700801434050945" lon="-74.02256680496325">
        <ele>0</ele>
        <time>2026-05-06T16:00:29.435Z</time>
      </trkpt>
      <trkpt lat="40.70049332198221" lon="-74.02299878727749">
        <ele>0</ele>
        <time>2026-05-06T16:00:51.804Z</time>
      </trkpt>
      <trkpt lat="40.700185209913464" lon="-74.02343076959171">
        <ele>0</ele>
        <time>2026-05-06T16:01:14.173Z</time>
      </trkpt>
      <trkpt lat="40.69987709784473" lon="-74.02386275190594">
        <ele>0</ele>
        <time>2026-05-06T16:01:36.542Z</time>
      </trkpt>
      <trkpt lat="40.69956898577599" lon="-74.02429473422016">
        <ele>0</ele>
        <time>2026-05-06T16:01:58.911Z</time>
      </trkpt>
      <trkpt lat="40.69926087370725" lon="-74.0247267165344">
        <ele>0</ele>
        <time>2026-05-06T16:02:21.281Z</time>
      </trkpt>
      <trkpt lat="40.69895276163851" lon="-74.02515869884863">
        <ele>0</ele>
        <time>2026-05-06T16:02:43.651Z</time>
      </trkpt>
      <trkpt lat="40.69864464956977" lon="-74.02559068116285">
        <ele>0</ele>
        <time>2026-05-06T16:03:06.021Z</time>
      </trkpt>
      <trkpt lat="40.698336537501035" lon="-74.02602266347708">
        <ele>0</ele>
        <time>2026-05-06T16:03:28.391Z</time>
      </trkpt>
      <trkpt lat="40.6980284254323" lon="-74.02645464579132">
        <ele>0</ele>
        <time>2026-05-06T16:03:50.761Z</time>
      </trkpt>
      <trkpt lat="40.697720313363554" lon="-74.02688662810554">
        <ele>0</ele>
        <time>2026-05-06T16:04:13.131Z</time>
      </trkpt>
      <trkpt lat="40.69741220129482" lon="-74.02731861041977">
        <ele>0</ele>
        <time>2026-05-06T16:04:35.501Z</time>
      </trkpt>
      <trkpt lat="40.69710408922608" lon="-74.02775059273401">
        <ele>0</ele>
        <time>2026-05-06T16:04:57.871Z</time>
      </trkpt>
      <trkpt lat="40.69679597715734" lon="-74.02818257504823">
        <ele>0</ele>
        <time>2026-05-06T16:05:20.241Z</time>
      </trkpt>
      <trkpt lat="40.6964878650886" lon="-74.02861455736246">
        <ele>0</ele>
        <time>2026-05-06T16:05:42.611Z</time>
      </trkpt>
      <trkpt lat="40.69617975301986" lon="-74.02904653967668">
        <ele>0</ele>
        <time>2026-05-06T16:06:04.981Z</time>
      </trkpt>
      <trkpt lat="40.69605027158988" lon="-74.02922807650516">
        <ele>0</ele>
        <time>2026-05-06T16:06:14.382Z</time>
      </trkpt>
      <trkpt lat="40.695808467138825" lon="-74.02972809052282">
        <ele>0</ele>
        <time>2026-05-06T16:06:36.751Z</time>
      </trkpt>
      <trkpt lat="40.69556666268776" lon="-74.03022810454048">
        <ele>0</ele>
        <time>2026-05-06T16:06:59.120Z</time>
      </trkpt>
      <trkpt lat="40.6953248582367" lon="-74.03072811855814">
        <ele>0</ele>
        <time>2026-05-06T16:07:21.489Z</time>
      </trkpt>
      <trkpt lat="40.69508305378564" lon="-74.0312281325758">
        <ele>0</ele>
        <time>2026-05-06T16:07:43.858Z</time>
      </trkpt>
      <trkpt lat="40.69484124933458" lon="-74.03172814659347">
        <ele>0</ele>
        <time>2026-05-06T16:08:06.228Z</time>
      </trkpt>
      <trkpt lat="40.694599444883515" lon="-74.03222816061113">
        <ele>0</ele>
        <time>2026-05-06T16:08:28.598Z</time>
      </trkpt>
      <trkpt lat="40.69435764043246" lon="-74.03272817462879">
        <ele>0</ele>
        <time>2026-05-06T16:08:50.968Z</time>
      </trkpt>
      <trkpt lat="40.6941158359814" lon="-74.03322818864645">
        <ele>0</ele>
        <time>2026-05-06T16:09:13.338Z</time>
      </trkpt>
      <trkpt lat="40.693874031530335" lon="-74.03372820266411">
        <ele>0</ele>
        <time>2026-05-06T16:09:35.708Z</time>
      </trkpt>
      <trkpt lat="40.69363222707928" lon="-74.03422821668177">
        <ele>0</ele>
        <time>2026-05-06T16:09:58.078Z</time>
      </trkpt>
      <trkpt lat="40.69339042262821" lon="-74.03472823069943">
        <ele>0</ele>
        <time>2026-05-06T16:10:20.448Z</time>
      </trkpt>
      <trkpt lat="40.693148618177155" lon="-74.03522824471709">
        <ele>0</ele>
        <time>2026-05-06T16:10:42.818Z</time>
      </trkpt>
      <trkpt lat="40.69290681372609" lon="-74.03572825873475">
        <ele>0</ele>
        <time>2026-05-06T16:11:05.188Z</time>
      </trkpt>
      <trkpt lat="40.69266500927503" lon="-74.03622827275241">
        <ele>0</ele>
        <time>2026-05-06T16:11:27.558Z</time>
      </trkpt>
      <trkpt lat="40.692423204823974" lon="-74.03672828677007">
        <ele>0</ele>
        <time>2026-05-06T16:11:49.928Z</time>
      </trkpt>
      <trkpt lat="40.69240157649952" lon="-74.03677301078304">
        <ele>0</ele>
        <time>2026-05-06T16:11:51.928Z</time>
      </trkpt>
      <trkpt lat="40.692068856982836" lon="-74.03717192836808">
        <ele>0</ele>
        <time>2026-05-06T16:12:14.297Z</time>
      </trkpt>
      <trkpt lat="40.691736137466144" lon="-74.03757084595313">
        <ele>0</ele>
        <time>2026-05-06T16:12:36.666Z</time>
      </trkpt>
      <trkpt lat="40.69140341794946" lon="-74.03796976353817">
        <ele>0</ele>
        <time>2026-05-06T16:12:59.036Z</time>
      </trkpt>
      <trkpt lat="40.691070698432775" lon="-74.03836868112322">
        <ele>0</ele>
        <time>2026-05-06T16:13:21.406Z</time>
      </trkpt>
      <trkpt lat="40.69073797891608" lon="-74.03876759870826">
        <ele>0</ele>
        <time>2026-05-06T16:13:43.776Z</time>
      </trkpt>
      <trkpt lat="40.6904052593994" lon="-74.0391665162933">
        <ele>0</ele>
        <time>2026-05-06T16:14:06.146Z</time>
      </trkpt>
      <trkpt lat="40.69007253988271" lon="-74.03956543387835">
        <ele>0</ele>
        <time>2026-05-06T16:14:28.516Z</time>
      </trkpt>
      <trkpt lat="40.68973982036602" lon="-74.0399643514634">
        <ele>0</ele>
        <time>2026-05-06T16:14:50.886Z</time>
      </trkpt>
      <trkpt lat="40.68940710084934" lon="-74.04036326904844">
        <ele>0</ele>
        <time>2026-05-06T16:15:13.256Z</time>
      </trkpt>
      <trkpt lat="40.68907438133265" lon="-74.04076218663349">
        <ele>0</ele>
        <time>2026-05-06T16:15:35.626Z</time>
      </trkpt>
      <trkpt lat="40.68874166181597" lon="-74.04116110421853">
        <ele>0</ele>
        <time>2026-05-06T16:15:57.996Z</time>
      </trkpt>
      <trkpt lat="40.688508827315104" lon="-74.04144026360696">
        <ele>0</ele>
        <time>2026-05-06T16:16:13.650Z</time>
      </trkpt>
      <trkpt lat="40.688196024310606" lon="-74.04186627114862">
        <ele>0</ele>
        <time>2026-05-06T16:16:36.020Z</time>
      </trkpt>
      <trkpt lat="40.68788322130611" lon="-74.04229227869028">
        <ele>0</ele>
        <time>2026-05-06T16:16:58.390Z</time>
      </trkpt>
      <trkpt lat="40.687570418301604" lon="-74.04271828623196">
        <ele>0</ele>
        <time>2026-05-06T16:17:20.760Z</time>
      </trkpt>
      <trkpt lat="40.687257615297106" lon="-74.04314429377362">
        <ele>0</ele>
        <time>2026-05-06T16:17:43.130Z</time>
      </trkpt>
      <trkpt lat="40.68701390150633" lon="-74.04347620846556">
        <ele>0</ele>
        <time>2026-05-06T16:18:00.559Z</time>
      </trkpt>
      <trkpt lat="40.68656453832594" lon="-74.04349775766651">
        <ele>0</ele>
        <time>2026-05-06T16:18:22.929Z</time>
      </trkpt>
      <trkpt lat="40.68615290351789" lon="-74.04351749760423">
        <ele>0</ele>
        <time>2026-05-06T16:18:43.420Z</time>
      </trkpt>
      <trkpt lat="40.68593076715774" lon="-74.04300191931597">
        <ele>0</ele>
        <time>2026-05-06T16:19:05.790Z</time>
      </trkpt>
      <trkpt lat="40.68576153711862" lon="-74.04260913655031">
        <ele>0</ele>
        <time>2026-05-06T16:19:22.832Z</time>
      </trkpt>
      <trkpt lat="40.68613905838821" lon="-74.04228699410656">
        <ele>0</ele>
        <time>2026-05-06T16:19:45.202Z</time>
      </trkpt>
      <trkpt lat="40.686293794858585" lon="-74.04215495602362">
        <ele>0</ele>
        <time>2026-05-06T16:19:54.370Z</time>
      </trkpt>
      <trkpt lat="40.686548540312415" lon="-74.0426436076582">
        <ele>0</ele>
        <time>2026-05-06T16:20:16.740Z</time>
      </trkpt>
      <trkpt lat="40.68663819466116" lon="-74.04281558224461">
        <ele>0</ele>
        <time>2026-05-06T16:20:24.612Z</time>
      </trkpt>
      <trkpt lat="40.686620912816345" lon="-74.04222302531362">
        <ele>0</ele>
        <time>2026-05-06T16:20:46.982Z</time>
      </trkpt>
      <trkpt lat="40.68660688566155" lon="-74.04174206463559">
        <ele>0</ele>
        <time>2026-05-06T16:21:05.139Z</time>
      </trkpt>
      <trkpt lat="40.68616634686692" lon="-74.0416232313014">
        <ele>0</ele>
        <time>2026-05-06T16:21:27.509Z</time>
      </trkpt>
      <trkpt lat="40.68591808395382" lon="-74.04155626351088">
        <ele>0</ele>
        <time>2026-05-06T16:21:40.115Z</time>
      </trkpt>
      <trkpt lat="40.68569278789338" lon="-74.04104307675728">
        <ele>0</ele>
        <time>2026-05-06T16:22:02.485Z</time>
      </trkpt>
      <trkpt lat="40.68557368043071" lon="-74.04077176987344">
        <ele>0</ele>
        <time>2026-05-06T16:22:14.311Z</time>
      </trkpt>
      <trkpt lat="40.6860130777322" lon="-74.04064580144751">
        <ele>0</ele>
        <time>2026-05-06T16:22:36.681Z</time>
      </trkpt>
      <trkpt lat="40.686293794858585" lon="-74.04056532417917">
        <ele>0</ele>
        <time>2026-05-06T16:22:50.972Z</time>
      </trkpt>
      <trkpt lat="40.686459088483744" lon="-74.04001384481134">
        <ele>0</ele>
        <time>2026-05-06T16:23:13.342Z</time>
      </trkpt>
      <trkpt lat="40.6866243821089" lon="-74.0394623654435">
        <ele>0</ele>
        <time>2026-05-06T16:23:35.712Z</time>
      </trkpt>
      <trkpt lat="40.68678967573407" lon="-74.03891088607567">
        <ele>0</ele>
        <time>2026-05-06T16:23:58.082Z</time>
      </trkpt>
      <trkpt lat="40.68695496935923" lon="-74.03835940670783">
        <ele>0</ele>
        <time>2026-05-06T16:24:20.452Z</time>
      </trkpt>
      <trkpt lat="40.687120262984386" lon="-74.03780792734">
        <ele>0</ele>
        <time>2026-05-06T16:24:42.822Z</time>
      </trkpt>
      <trkpt lat="40.687285556609545" lon="-74.03725644797217">
        <ele>0</ele>
        <time>2026-05-06T16:25:05.192Z</time>
      </trkpt>
      <trkpt lat="40.68745085023471" lon="-74.03670496860433">
        <ele>0</ele>
        <time>2026-05-06T16:25:27.562Z</time>
      </trkpt>
      <trkpt lat="40.68760352632228" lon="-74.0361955859093">
        <ele>0</ele>
        <time>2026-05-06T16:25:48.224Z</time>
      </trkpt>
      <trkpt lat="40.68803728957445" lon="-74.03635187576276">
        <ele>0</ele>
        <time>2026-05-06T16:26:10.594Z</time>
      </trkpt>
      <trkpt lat="40.68847105282662" lon="-74.03650816561624">
        <ele>0</ele>
        <time>2026-05-06T16:26:32.964Z</time>
      </trkpt>
      <trkpt lat="40.6889048160788" lon="-74.0366644554697">
        <ele>0</ele>
        <time>2026-05-06T16:26:55.334Z</time>
      </trkpt>
      <trkpt lat="40.689338579330965" lon="-74.03682074532317">
        <ele>0</ele>
        <time>2026-05-06T16:27:17.704Z</time>
      </trkpt>
      <trkpt lat="40.68977234258314" lon="-74.03697703517665">
        <ele>0</ele>
        <time>2026-05-06T16:27:40.074Z</time>
      </trkpt>
      <trkpt lat="40.69020610583531" lon="-74.03713332503011">
        <ele>0</ele>
        <time>2026-05-06T16:28:02.444Z</time>
      </trkpt>
      <trkpt lat="40.690639869087484" lon="-74.03728961488358">
        <ele>0</ele>
        <time>2026-05-06T16:28:24.814Z</time>
      </trkpt>
      <trkpt lat="40.69107363233965" lon="-74.03744590473706">
        <ele>0</ele>
        <time>2026-05-06T16:28:47.184Z</time>
      </trkpt>
      <trkpt lat="40.69150739559183" lon="-74.03760219459052">
        <ele>0</ele>
        <time>2026-05-06T16:29:09.554Z</time>
      </trkpt>
      <trkpt lat="40.691941158843996" lon="-74.037758484444">
        <ele>0</ele>
        <time>2026-05-06T16:29:31.924Z</time>
      </trkpt>
      <trkpt lat="40.69237492209617" lon="-74.03791477429746">
        <ele>0</ele>
        <time>2026-05-06T16:29:54.294Z</time>
      </trkpt>
      <trkpt lat="40.69271906774185" lon="-74.03803877390385">
        <ele>0</ele>
        <time>2026-05-06T16:30:12.042Z</time>
      </trkpt>
      <trkpt lat="40.69273020344777" lon="-74.03744590585033">
        <ele>0</ele>
        <time>2026-05-06T16:30:34.412Z</time>
      </trkpt>
      <trkpt lat="40.6927413391537" lon="-74.03685303779682">
        <ele>0</ele>
        <time>2026-05-06T16:30:56.782Z</time>
      </trkpt>
      <trkpt lat="40.692752474859624" lon="-74.0362601697433">
        <ele>0</ele>
        <time>2026-05-06T16:31:19.152Z</time>
      </trkpt>
      <trkpt lat="40.69276361056555" lon="-74.03566730168978">
        <ele>0</ele>
        <time>2026-05-06T16:31:41.522Z</time>
      </trkpt>
      <trkpt lat="40.692774746271475" lon="-74.03507443363627">
        <ele>0</ele>
        <time>2026-05-06T16:32:03.892Z</time>
      </trkpt>
      <trkpt lat="40.6927858819774" lon="-74.03448156558275">
        <ele>0</ele>
        <time>2026-05-06T16:32:26.262Z</time>
      </trkpt>
      <trkpt lat="40.692797017683326" lon="-74.03388869752924">
        <ele>0</ele>
        <time>2026-05-06T16:32:48.632Z</time>
      </trkpt>
      <trkpt lat="40.69280815338925" lon="-74.03329582947572">
        <ele>0</ele>
        <time>2026-05-06T16:33:11.002Z</time>
      </trkpt>
      <trkpt lat="40.692819289095176" lon="-74.03270296142219">
        <ele>0</ele>
        <time>2026-05-06T16:33:33.372Z</time>
      </trkpt>
      <trkpt lat="40.6928304248011" lon="-74.03211009336867">
        <ele>0</ele>
        <time>2026-05-06T16:33:55.742Z</time>
      </trkpt>
      <trkpt lat="40.69284156050703" lon="-74.03151722531516">
        <ele>0</ele>
        <time>2026-05-06T16:34:18.112Z</time>
      </trkpt>
      <trkpt lat="40.69285269621295" lon="-74.03092435726164">
        <ele>0</ele>
        <time>2026-05-06T16:34:40.482Z</time>
      </trkpt>
      <trkpt lat="40.69286098872752" lon="-74.03048286150013">
        <ele>0</ele>
        <time>2026-05-06T16:34:57.140Z</time>
      </trkpt>
      <trkpt lat="40.69301788774106" lon="-74.0299270725283">
        <ele>0</ele>
        <time>2026-05-06T16:35:19.510Z</time>
      </trkpt>
      <trkpt lat="40.69317478675459" lon="-74.02937128355646">
        <ele>0</ele>
        <time>2026-05-06T16:35:41.880Z</time>
      </trkpt>
      <trkpt lat="40.69333168576813" lon="-74.02881549458463">
        <ele>0</ele>
        <time>2026-05-06T16:36:04.250Z</time>
      </trkpt>
      <trkpt lat="40.69348858478166" lon="-74.0282597056128">
        <ele>0</ele>
        <time>2026-05-06T16:36:26.620Z</time>
      </trkpt>
      <trkpt lat="40.6936454837952" lon="-74.02770391664096">
        <ele>0</ele>
        <time>2026-05-06T16:36:48.990Z</time>
      </trkpt>
      <trkpt lat="40.69380238280874" lon="-74.02714812766912">
        <ele>0</ele>
        <time>2026-05-06T16:37:11.360Z</time>
      </trkpt>
      <trkpt lat="40.69395928182227" lon="-74.0265923386973">
        <ele>0</ele>
        <time>2026-05-06T16:37:33.730Z</time>
      </trkpt>
      <trkpt lat="40.69411618083581" lon="-74.02603654972546">
        <ele>0</ele>
        <time>2026-05-06T16:37:56.100Z</time>
      </trkpt>
      <trkpt lat="40.69427307984935" lon="-74.02548076075362">
        <ele>0</ele>
        <time>2026-05-06T16:38:18.470Z</time>
      </trkpt>
      <trkpt lat="40.694429978862885" lon="-74.02492497178179">
        <ele>0</ele>
        <time>2026-05-06T16:38:40.840Z</time>
      </trkpt>
      <trkpt lat="40.694586877876425" lon="-74.02436918280996">
        <ele>0</ele>
        <time>2026-05-06T16:39:03.210Z</time>
      </trkpt>
      <trkpt lat="40.69474377688996" lon="-74.02381339383813">
        <ele>0</ele>
        <time>2026-05-06T16:39:25.580Z</time>
      </trkpt>
      <trkpt lat="40.6949006759035" lon="-74.02325760486629">
        <ele>0</ele>
        <time>2026-05-06T16:39:47.950Z</time>
      </trkpt>
      <trkpt lat="40.69505757491704" lon="-74.02270181589445">
        <ele>0</ele>
        <time>2026-05-06T16:40:10.319Z</time>
      </trkpt>
      <trkpt lat="40.69521447393057" lon="-74.02214602692261">
        <ele>0</ele>
        <time>2026-05-06T16:40:32.688Z</time>
      </trkpt>
      <trkpt lat="40.69537137294411" lon="-74.02159023795079">
        <ele>0</ele>
        <time>2026-05-06T16:40:55.057Z</time>
      </trkpt>
      <trkpt lat="40.69552827195764" lon="-74.02103444897895">
        <ele>0</ele>
        <time>2026-05-06T16:41:17.426Z</time>
      </trkpt>
      <trkpt lat="40.69568517097118" lon="-74.02047866000711">
        <ele>0</ele>
        <time>2026-05-06T16:41:39.795Z</time>
      </trkpt>
      <trkpt lat="40.695714002898654" lon="-74.02037652764207">
        <ele>0</ele>
        <time>2026-05-06T16:41:43.905Z</time>
      </trkpt>
      <trkpt lat="40.69606600734542" lon="-74.0200074811527">
        <ele>0</ele>
        <time>2026-05-06T16:42:06.275Z</time>
      </trkpt>
      <trkpt lat="40.69641801179219" lon="-74.01963843466332">
        <ele>0</ele>
        <time>2026-05-06T16:42:28.645Z</time>
      </trkpt>
      <trkpt lat="40.69677001623896" lon="-74.01926938817395">
        <ele>0</ele>
        <time>2026-05-06T16:42:51.015Z</time>
      </trkpt>
      <trkpt lat="40.697122020685725" lon="-74.01890034168458">
        <ele>0</ele>
        <time>2026-05-06T16:43:13.385Z</time>
      </trkpt>
      <trkpt lat="40.69747402513249" lon="-74.0185312951952">
        <ele>0</ele>
        <time>2026-05-06T16:43:35.755Z</time>
      </trkpt>
      <trkpt lat="40.697826029579254" lon="-74.01816224870583">
        <ele>0</ele>
        <time>2026-05-06T16:43:58.125Z</time>
      </trkpt>
      <trkpt lat="40.69817803402602" lon="-74.01779320221645">
        <ele>0</ele>
        <time>2026-05-06T16:44:20.495Z</time>
      </trkpt>
      <trkpt lat="40.69853003847279" lon="-74.01742415572708">
        <ele>0</ele>
        <time>2026-05-06T16:44:42.865Z</time>
      </trkpt>
      <trkpt lat="40.69876614394349" lon="-74.01717661937951">
        <ele>0</ele>
        <time>2026-05-06T16:44:57.869Z</time>
      </trkpt>
      <trkpt lat="40.699110663563346" lon="-74.01755779677106">
        <ele>0</ele>
        <time>2026-05-06T16:45:20.239Z</time>
      </trkpt>
      <trkpt lat="40.699455183183204" lon="-74.01793897416262">
        <ele>0</ele>
        <time>2026-05-06T16:45:42.609Z</time>
      </trkpt>
      <trkpt lat="40.69979970280307" lon="-74.01832015155416">
        <ele>0</ele>
        <time>2026-05-06T16:46:04.979Z</time>
      </trkpt>
      <trkpt lat="40.70014422242293" lon="-74.01870132894571">
        <ele>0</ele>
        <time>2026-05-06T16:46:27.349Z</time>
      </trkpt>
      <trkpt lat="40.700488742042786" lon="-74.01908250633726">
        <ele>0</ele>
        <time>2026-05-06T16:46:49.719Z</time>
      </trkpt>
      <trkpt lat="40.700833261662645" lon="-74.01946368372882">
        <ele>0</ele>
        <time>2026-05-06T16:47:12.089Z</time>
      </trkpt>
      <trkpt lat="40.70117778128251" lon="-74.01984486112036">
        <ele>0</ele>
        <time>2026-05-06T16:47:34.459Z</time>
      </trkpt>
      <trkpt lat="40.70152230090237" lon="-74.02022603851191">
        <ele>0</ele>
        <time>2026-05-06T16:47:56.829Z</time>
      </trkpt>
      <trkpt lat="40.70186682052223" lon="-74.02060721590345">
        <ele>0</ele>
        <time>2026-05-06T16:48:19.199Z</time>
      </trkpt>
      <trkpt lat="40.702211340142085" lon="-74.02098839329501">
        <ele>0</ele>
        <time>2026-05-06T16:48:41.569Z</time>
      </trkpt>
      <trkpt lat="40.70255585976195" lon="-74.02136957068656">
        <ele>0</ele>
        <time>2026-05-06T16:49:03.939Z</time>
      </trkpt>
      <trkpt lat="40.70290037938181" lon="-74.0217507480781">
        <ele>0</ele>
        <time>2026-05-06T16:49:26.309Z</time>
      </trkpt>
      <trkpt lat="40.70324489900167" lon="-74.02213192546967">
        <ele>0</ele>
        <time>2026-05-06T16:49:48.679Z</time>
      </trkpt>
      <trkpt lat="40.703589418621526" lon="-74.02251310286121">
        <ele>0</ele>
        <time>2026-05-06T16:50:11.049Z</time>
      </trkpt>
      <trkpt lat="40.703933938241384" lon="-74.02289428025276">
        <ele>0</ele>
        <time>2026-05-06T16:50:33.419Z</time>
      </trkpt>
      <trkpt lat="40.70427845786125" lon="-74.0232754576443">
        <ele>0</ele>
        <time>2026-05-06T16:50:55.789Z</time>
      </trkpt>
      <trkpt lat="40.70462297748111" lon="-74.02365663503586">
        <ele>0</ele>
        <time>2026-05-06T16:51:18.159Z</time>
      </trkpt>
      <trkpt lat="40.70496749710097" lon="-74.02403781242741">
        <ele>0</ele>
        <time>2026-05-06T16:51:40.529Z</time>
      </trkpt>
      <trkpt lat="40.705312016720825" lon="-74.02441898981895">
        <ele>0</ele>
        <time>2026-05-06T16:52:02.899Z</time>
      </trkpt>
      <trkpt lat="40.70565653634069" lon="-74.0248001672105">
        <ele>0</ele>
        <time>2026-05-06T16:52:25.269Z</time>
      </trkpt>
      <trkpt lat="40.70600105596055" lon="-74.02518134460206">
        <ele>0</ele>
        <time>2026-05-06T16:52:47.638Z</time>
      </trkpt>
      <trkpt lat="40.70634557558041" lon="-74.0255625219936">
        <ele>0</ele>
        <time>2026-05-06T16:53:10.007Z</time>
      </trkpt>
      <trkpt lat="40.706690095200265" lon="-74.02594369938515">
        <ele>0</ele>
        <time>2026-05-06T16:53:32.376Z</time>
      </trkpt>
      <trkpt lat="40.70703461482013" lon="-74.02632487677671">
        <ele>0</ele>
        <time>2026-05-06T16:53:54.745Z</time>
      </trkpt>
      <trkpt lat="40.70737913443999" lon="-74.02670605416826">
        <ele>0</ele>
        <time>2026-05-06T16:54:17.114Z</time>
      </trkpt>
      <trkpt lat="40.70772365405985" lon="-74.0270872315598">
        <ele>0</ele>
        <time>2026-05-06T16:54:39.483Z</time>
      </trkpt>
      <trkpt lat="40.708068173679706" lon="-74.02746840895135">
        <ele>0</ele>
        <time>2026-05-06T16:55:01.852Z</time>
      </trkpt>
      <trkpt lat="40.70841269329957" lon="-74.02784958634291">
        <ele>0</ele>
        <time>2026-05-06T16:55:24.221Z</time>
      </trkpt>
      <trkpt lat="40.70875721291943" lon="-74.02823076373446">
        <ele>0</ele>
        <time>2026-05-06T16:55:46.590Z</time>
      </trkpt>
      <trkpt lat="40.70910173253929" lon="-74.028611941126">
        <ele>0</ele>
        <time>2026-05-06T16:56:08.959Z</time>
      </trkpt>
      <trkpt lat="40.70944625215915" lon="-74.02899311851756">
        <ele>0</ele>
        <time>2026-05-06T16:56:31.328Z</time>
      </trkpt>
      <trkpt lat="40.709790771779005" lon="-74.02937429590911">
        <ele>0</ele>
        <time>2026-05-06T16:56:53.697Z</time>
      </trkpt>
      <trkpt lat="40.71004699437805" lon="-74.02965778125022">
        <ele>0</ele>
        <time>2026-05-06T16:57:10.333Z</time>
      </trkpt>
      <trkpt lat="40.71046107641318" lon="-74.02988904670734">
        <ele>0</ele>
        <time>2026-05-06T16:57:32.703Z</time>
      </trkpt>
      <trkpt lat="40.71087515844832" lon="-74.03012031216444">
        <ele>0</ele>
        <time>2026-05-06T16:57:55.073Z</time>
      </trkpt>
      <trkpt lat="40.71128924048346" lon="-74.03035157762156">
        <ele>0</ele>
        <time>2026-05-06T16:58:17.443Z</time>
      </trkpt>
      <trkpt lat="40.711703322518595" lon="-74.03058284307868">
        <ele>0</ele>
        <time>2026-05-06T16:58:39.813Z</time>
      </trkpt>
      <trkpt lat="40.71211740455373" lon="-74.03081410853578">
        <ele>0</ele>
        <time>2026-05-06T16:59:02.183Z</time>
      </trkpt>
      <trkpt lat="40.712403912128565" lon="-74.03097412345949">
        <ele>0</ele>
        <time>2026-05-06T16:59:17.661Z</time>
      </trkpt>
      <trkpt lat="40.712688275090365" lon="-74.03051456965403">
        <ele>0</ele>
        <time>2026-05-06T16:59:40.031Z</time>
      </trkpt>
      <trkpt lat="40.71297263805216" lon="-74.03005501584856">
        <ele>0</ele>
        <time>2026-05-06T17:00:02.401Z</time>
      </trkpt>
      <trkpt lat="40.71325700101396" lon="-74.0295954620431">
        <ele>0</ele>
        <time>2026-05-06T17:00:24.771Z</time>
      </trkpt>
      <trkpt lat="40.71354136397575" lon="-74.02913590823763">
        <ele>0</ele>
        <time>2026-05-06T17:00:47.141Z</time>
      </trkpt>
      <trkpt lat="40.71382572693755" lon="-74.02867635443218">
        <ele>0</ele>
        <time>2026-05-06T17:01:09.511Z</time>
      </trkpt>
      <trkpt lat="40.71411008989934" lon="-74.02821680062671">
        <ele>0</ele>
        <time>2026-05-06T17:01:31.881Z</time>
      </trkpt>
      <trkpt lat="40.71439445286114" lon="-74.02775724682125">
        <ele>0</ele>
        <time>2026-05-06T17:01:54.251Z</time>
      </trkpt>
      <trkpt lat="40.71467881582294" lon="-74.02729769301578">
        <ele>0</ele>
        <time>2026-05-06T17:02:16.621Z</time>
      </trkpt>
      <trkpt lat="40.714963178784735" lon="-74.02683813921033">
        <ele>0</ele>
        <time>2026-05-06T17:02:38.991Z</time>
      </trkpt>
      <trkpt lat="40.715247541746535" lon="-74.02637858540486">
        <ele>0</ele>
        <time>2026-05-06T17:03:01.361Z</time>
      </trkpt>
      <trkpt lat="40.71553190470833" lon="-74.0259190315994">
        <ele>0</ele>
        <time>2026-05-06T17:03:23.731Z</time>
      </trkpt>
      <trkpt lat="40.71581626767013" lon="-74.02545947779393">
        <ele>0</ele>
        <time>2026-05-06T17:03:46.100Z</time>
      </trkpt>
      <trkpt lat="40.71610063063192" lon="-74.02499992398847">
        <ele>0</ele>
        <time>2026-05-06T17:04:08.469Z</time>
      </trkpt>
      <trkpt lat="40.71638499359372" lon="-74.024540370183">
        <ele>0</ele>
        <time>2026-05-06T17:04:30.838Z</time>
      </trkpt>
      <trkpt lat="40.71666935655552" lon="-74.02408081637755">
        <ele>0</ele>
        <time>2026-05-06T17:04:53.207Z</time>
      </trkpt>
      <trkpt lat="40.71669454307826" lon="-74.02404011289669">
        <ele>0</ele>
        <time>2026-05-06T17:04:55.188Z</time>
      </trkpt>
      <trkpt lat="40.71703669935737" lon="-74.02365516644859">
        <ele>0</ele>
        <time>2026-05-06T17:05:17.558Z</time>
      </trkpt>
      <trkpt lat="40.71737885563648" lon="-74.02327022000048">
        <ele>0</ele>
        <time>2026-05-06T17:05:39.928Z</time>
      </trkpt>
      <trkpt lat="40.71772101191559" lon="-74.02288527355239">
        <ele>0</ele>
        <time>2026-05-06T17:06:02.298Z</time>
      </trkpt>
      <trkpt lat="40.7180631681947" lon="-74.02250032710428">
        <ele>0</ele>
        <time>2026-05-06T17:06:24.668Z</time>
      </trkpt>
      <trkpt lat="40.71840532447382" lon="-74.02211538065619">
        <ele>0</ele>
        <time>2026-05-06T17:06:47.038Z</time>
      </trkpt>
      <trkpt lat="40.71874748075293" lon="-74.02173043420808">
        <ele>0</ele>
        <time>2026-05-06T17:07:09.408Z</time>
      </trkpt>
      <trkpt lat="40.71908963703204" lon="-74.02134548775999">
        <ele>0</ele>
        <time>2026-05-06T17:07:31.778Z</time>
      </trkpt>
      <trkpt lat="40.71943179331115" lon="-74.0209605413119">
        <ele>0</ele>
        <time>2026-05-06T17:07:54.148Z</time>
      </trkpt>
      <trkpt lat="40.71977394959026" lon="-74.02057559486379">
        <ele>0</ele>
        <time>2026-05-06T17:08:16.518Z</time>
      </trkpt>
      <trkpt lat="40.72011610586937" lon="-74.02019064841569">
        <ele>0</ele>
        <time>2026-05-06T17:08:38.888Z</time>
      </trkpt>
      <trkpt lat="40.72045826214848" lon="-74.01980570196758">
        <ele>0</ele>
        <time>2026-05-06T17:09:01.257Z</time>
      </trkpt>
      <trkpt lat="40.720750056598234" lon="-74.01947741561465">
        <ele>0</ele>
        <time>2026-05-06T17:09:20.334Z</time>
      </trkpt>
      <trkpt lat="40.72111226399604" lon="-74.01982900715151">
        <ele>0</ele>
        <time>2026-05-06T17:09:42.704Z</time>
      </trkpt>
      <trkpt lat="40.72147447139385" lon="-74.02018059868837">
        <ele>0</ele>
        <time>2026-05-06T17:10:05.074Z</time>
      </trkpt>
      <trkpt lat="40.721836678791654" lon="-74.02053219022524">
        <ele>0</ele>
        <time>2026-05-06T17:10:27.444Z</time>
      </trkpt>
      <trkpt lat="40.72219888618947" lon="-74.02088378176211">
        <ele>0</ele>
        <time>2026-05-06T17:10:49.814Z</time>
      </trkpt>
      <trkpt lat="40.722561093587274" lon="-74.02123537329896">
        <ele>0</ele>
        <time>2026-05-06T17:11:12.184Z</time>
      </trkpt>
      <trkpt lat="40.72292330098508" lon="-74.02158696483583">
        <ele>0</ele>
        <time>2026-05-06T17:11:34.554Z</time>
      </trkpt>
      <trkpt lat="40.72328550838289" lon="-74.0219385563727">
        <ele>0</ele>
        <time>2026-05-06T17:11:56.924Z</time>
      </trkpt>
      <trkpt lat="40.72364771578069" lon="-74.02229014790956">
        <ele>0</ele>
        <time>2026-05-06T17:12:19.294Z</time>
      </trkpt>
      <trkpt lat="40.7240099231785" lon="-74.02264173944643">
        <ele>0</ele>
        <time>2026-05-06T17:12:41.664Z</time>
      </trkpt>
      <trkpt lat="40.724372130576306" lon="-74.0229933309833">
        <ele>0</ele>
        <time>2026-05-06T17:13:04.034Z</time>
      </trkpt>
      <trkpt lat="40.72473433797411" lon="-74.02334492252015">
        <ele>0</ele>
        <time>2026-05-06T17:13:26.404Z</time>
      </trkpt>
      <trkpt lat="40.725096545371926" lon="-74.02369651405702">
        <ele>0</ele>
        <time>2026-05-06T17:13:48.774Z</time>
      </trkpt>
      <trkpt lat="40.72545875276973" lon="-74.02404810559389">
        <ele>0</ele>
        <time>2026-05-06T17:14:11.144Z</time>
      </trkpt>
      <trkpt lat="40.72582096016754" lon="-74.02439969713075">
        <ele>0</ele>
        <time>2026-05-06T17:14:33.513Z</time>
      </trkpt>
      <trkpt lat="40.726183167565345" lon="-74.02475128866762">
        <ele>0</ele>
        <time>2026-05-06T17:14:55.882Z</time>
      </trkpt>
      <trkpt lat="40.72654537496315" lon="-74.02510288020449">
        <ele>0</ele>
        <time>2026-05-06T17:15:18.251Z</time>
      </trkpt>
      <trkpt lat="40.726826806903205" lon="-74.0253760637146">
        <ele>0</ele>
        <time>2026-05-06T17:15:35.632Z</time>
      </trkpt>
      <trkpt lat="40.72708119992915" lon="-74.02488678137983">
        <ele>0</ele>
        <time>2026-05-06T17:15:58.002Z</time>
      </trkpt>
      <trkpt lat="40.7273355929551" lon="-74.02439749904507">
        <ele>0</ele>
        <time>2026-05-06T17:16:20.372Z</time>
      </trkpt>
      <trkpt lat="40.72758998598104" lon="-74.02390821671028">
        <ele>0</ele>
        <time>2026-05-06T17:16:42.742Z</time>
      </trkpt>
      <trkpt lat="40.72784437900699" lon="-74.02341893437551">
        <ele>0</ele>
        <time>2026-05-06T17:17:05.112Z</time>
      </trkpt>
      <trkpt lat="40.728098772032936" lon="-74.02292965204074">
        <ele>0</ele>
        <time>2026-05-06T17:17:27.482Z</time>
      </trkpt>
      <trkpt lat="40.728353165058884" lon="-74.02244036970598">
        <ele>0</ele>
        <time>2026-05-06T17:17:49.852Z</time>
      </trkpt>
      <trkpt lat="40.728607558084825" lon="-74.0219510873712">
        <ele>0</ele>
        <time>2026-05-06T17:18:12.222Z</time>
      </trkpt>
      <trkpt lat="40.72886195111077" lon="-74.02146180503644">
        <ele>0</ele>
        <time>2026-05-06T17:18:34.592Z</time>
      </trkpt>
      <trkpt lat="40.72911634413672" lon="-74.02097252270165">
        <ele>0</ele>
        <time>2026-05-06T17:18:56.962Z</time>
      </trkpt>
      <trkpt lat="40.72937073716267" lon="-74.02048324036689">
        <ele>0</ele>
        <time>2026-05-06T17:19:19.332Z</time>
      </trkpt>
      <trkpt lat="40.729625130188616" lon="-74.01999395803212">
        <ele>0</ele>
        <time>2026-05-06T17:19:41.702Z</time>
      </trkpt>
      <trkpt lat="40.72987952321456" lon="-74.01950467569735">
        <ele>0</ele>
        <time>2026-05-06T17:20:04.071Z</time>
      </trkpt>
      <trkpt lat="40.730133916240504" lon="-74.01901539336258">
        <ele>0</ele>
        <time>2026-05-06T17:20:26.440Z</time>
      </trkpt>
      <trkpt lat="40.73038830926645" lon="-74.0185261110278">
        <ele>0</ele>
        <time>2026-05-06T17:20:48.809Z</time>
      </trkpt>
      <trkpt lat="40.7306427022924" lon="-74.01803682869303">
        <ele>0</ele>
        <time>2026-05-06T17:21:11.178Z</time>
      </trkpt>
      <trkpt lat="40.73089709531835" lon="-74.01754754635826">
        <ele>0</ele>
        <time>2026-05-06T17:21:33.547Z</time>
      </trkpt>
      <trkpt lat="40.73092570219538" lon="-74.01749252582641">
        <ele>0</ele>
        <time>2026-05-06T17:21:36.062Z</time>
      </trkpt>
      <trkpt lat="40.73136342475009" lon="-74.01762835629987">
        <ele>0</ele>
        <time>2026-05-06T17:21:58.432Z</time>
      </trkpt>
      <trkpt lat="40.73180114730481" lon="-74.01776418677333">
        <ele>0</ele>
        <time>2026-05-06T17:22:20.802Z</time>
      </trkpt>
      <trkpt lat="40.73223886985952" lon="-74.01790001724679">
        <ele>0</ele>
        <time>2026-05-06T17:22:43.172Z</time>
      </trkpt>
      <trkpt lat="40.732676592414236" lon="-74.01803584772026">
        <ele>0</ele>
        <time>2026-05-06T17:23:05.542Z</time>
      </trkpt>
      <trkpt lat="40.73311431496895" lon="-74.01817167819371">
        <ele>0</ele>
        <time>2026-05-06T17:23:27.912Z</time>
      </trkpt>
      <trkpt lat="40.73355203752366" lon="-74.01830750866718">
        <ele>0</ele>
        <time>2026-05-06T17:23:50.282Z</time>
      </trkpt>
      <trkpt lat="40.73398976007837" lon="-74.01844333914063">
        <ele>0</ele>
        <time>2026-05-06T17:24:12.652Z</time>
      </trkpt>
      <trkpt lat="40.73442748263309" lon="-74.0185791696141">
        <ele>0</ele>
        <time>2026-05-06T17:24:35.022Z</time>
      </trkpt>
      <trkpt lat="40.7348652051878" lon="-74.01871500008755">
        <ele>0</ele>
        <time>2026-05-06T17:24:57.392Z</time>
      </trkpt>
      <trkpt lat="40.73530292774252" lon="-74.01885083056102">
        <ele>0</ele>
        <time>2026-05-06T17:25:19.762Z</time>
      </trkpt>
      <trkpt lat="40.73574065029723" lon="-74.01898666103448">
        <ele>0</ele>
        <time>2026-05-06T17:25:42.132Z</time>
      </trkpt>
      <trkpt lat="40.736178372851946" lon="-74.01912249150794">
        <ele>0</ele>
        <time>2026-05-06T17:26:04.502Z</time>
      </trkpt>
      <trkpt lat="40.73661609540666" lon="-74.0192583219814">
        <ele>0</ele>
        <time>2026-05-06T17:26:26.872Z</time>
      </trkpt>
      <trkpt lat="40.737053817961375" lon="-74.01939415245486">
        <ele>0</ele>
        <time>2026-05-06T17:26:49.242Z</time>
      </trkpt>
      <trkpt lat="40.73749154051609" lon="-74.01952998292832">
        <ele>0</ele>
        <time>2026-05-06T17:27:11.612Z</time>
      </trkpt>
      <trkpt lat="40.737929263070804" lon="-74.01966581340179">
        <ele>0</ele>
        <time>2026-05-06T17:27:33.982Z</time>
      </trkpt>
      <trkpt lat="40.73836698562552" lon="-74.01980164387524">
        <ele>0</ele>
        <time>2026-05-06T17:27:56.352Z</time>
      </trkpt>
      <trkpt lat="40.738804708180226" lon="-74.01993747434871">
        <ele>0</ele>
        <time>2026-05-06T17:28:18.722Z</time>
      </trkpt>
      <trkpt lat="40.73924243073494" lon="-74.02007330482216">
        <ele>0</ele>
        <time>2026-05-06T17:28:41.092Z</time>
      </trkpt>
      <trkpt lat="40.73924455366148" lon="-74.02007396359132">
        <ele>0</ele>
        <time>2026-05-06T17:28:41.200Z</time>
      </trkpt>
      <trkpt lat="40.73962406804746" lon="-74.01975565137742">
        <ele>0</ele>
        <time>2026-05-06T17:29:03.570Z</time>
      </trkpt>
      <trkpt lat="40.740003582433445" lon="-74.01943733916353">
        <ele>0</ele>
        <time>2026-05-06T17:29:25.940Z</time>
      </trkpt>
      <trkpt lat="40.740383096819436" lon="-74.01911902694964">
        <ele>0</ele>
        <time>2026-05-06T17:29:48.310Z</time>
      </trkpt>
      <trkpt lat="40.74076261120542" lon="-74.01880071473576">
        <ele>0</ele>
        <time>2026-05-06T17:30:10.680Z</time>
      </trkpt>
      <trkpt lat="40.7411421255914" lon="-74.01848240252187">
        <ele>0</ele>
        <time>2026-05-06T17:30:33.050Z</time>
      </trkpt>
      <trkpt lat="40.741521639977385" lon="-74.01816409030798">
        <ele>0</ele>
        <time>2026-05-06T17:30:55.420Z</time>
      </trkpt>
      <trkpt lat="40.741901154363376" lon="-74.01784577809408">
        <ele>0</ele>
        <time>2026-05-06T17:31:17.790Z</time>
      </trkpt>
      <trkpt lat="40.74228066874936" lon="-74.01752746588019">
        <ele>0</ele>
        <time>2026-05-06T17:31:40.160Z</time>
      </trkpt>
      <trkpt lat="40.74266018313534" lon="-74.0172091536663">
        <ele>0</ele>
        <time>2026-05-06T17:32:02.530Z</time>
      </trkpt>
      <trkpt lat="40.743039697521326" lon="-74.01689084145241">
        <ele>0</ele>
        <time>2026-05-06T17:32:24.900Z</time>
      </trkpt>
      <trkpt lat="40.74341921190731" lon="-74.01657252923852">
        <ele>0</ele>
        <time>2026-05-06T17:32:47.270Z</time>
      </trkpt>
      <trkpt lat="40.7437987262933" lon="-74.01625421702464">
        <ele>0</ele>
        <time>2026-05-06T17:33:09.640Z</time>
      </trkpt>
      <trkpt lat="40.74417824067928" lon="-74.01593590481075">
        <ele>0</ele>
        <time>2026-05-06T17:33:32.010Z</time>
      </trkpt>
      <trkpt lat="40.744557755065266" lon="-74.01561759259685">
        <ele>0</ele>
        <time>2026-05-06T17:33:54.379Z</time>
      </trkpt>
      <trkpt lat="40.74493726945125" lon="-74.01529928038296">
        <ele>0</ele>
        <time>2026-05-06T17:34:16.748Z</time>
      </trkpt>
      <trkpt lat="40.745254007667455" lon="-74.01503362077545">
        <ele>0</ele>
        <time>2026-05-06T17:34:35.417Z</time>
      </trkpt>
      <trkpt lat="40.74570240961282" lon="-74.01507799200796">
        <ele>0</ele>
        <time>2026-05-06T17:34:57.787Z</time>
      </trkpt>
      <trkpt lat="40.74615081155819" lon="-74.01512236324047">
        <ele>0</ele>
        <time>2026-05-06T17:35:20.157Z</time>
      </trkpt>
      <trkpt lat="40.74659921350355" lon="-74.01516673447297">
        <ele>0</ele>
        <time>2026-05-06T17:35:42.527Z</time>
      </trkpt>
      <trkpt lat="40.74704761544892" lon="-74.01521110570549">
        <ele>0</ele>
        <time>2026-05-06T17:36:04.897Z</time>
      </trkpt>
      <trkpt lat="40.74749601739428" lon="-74.015255476938">
        <ele>0</ele>
        <time>2026-05-06T17:36:27.267Z</time>
      </trkpt>
      <trkpt lat="40.74794441933965" lon="-74.0152998481705">
        <ele>0</ele>
        <time>2026-05-06T17:36:49.637Z</time>
      </trkpt>
      <trkpt lat="40.748392821285016" lon="-74.015344219403">
        <ele>0</ele>
        <time>2026-05-06T17:37:12.007Z</time>
      </trkpt>
      <trkpt lat="40.748841223230386" lon="-74.01538859063551">
        <ele>0</ele>
        <time>2026-05-06T17:37:34.377Z</time>
      </trkpt>
      <trkpt lat="40.74928962517575" lon="-74.01543296186802">
        <ele>0</ele>
        <time>2026-05-06T17:37:56.747Z</time>
      </trkpt>
      <trkpt lat="40.74973802712111" lon="-74.01547733310052">
        <ele>0</ele>
        <time>2026-05-06T17:38:19.117Z</time>
      </trkpt>
      <trkpt lat="40.75018642906648" lon="-74.01552170433303">
        <ele>0</ele>
        <time>2026-05-06T17:38:41.487Z</time>
      </trkpt>
      <trkpt lat="40.750634831011844" lon="-74.01556607556554">
        <ele>0</ele>
        <time>2026-05-06T17:39:03.857Z</time>
      </trkpt>
      <trkpt lat="40.75078170997935" lon="-74.01558060984864">
        <ele>0</ele>
        <time>2026-05-06T17:39:11.184Z</time>
      </trkpt>
      <trkpt lat="40.75121545905504" lon="-74.01573711334122">
        <ele>0</ele>
        <time>2026-05-06T17:39:33.554Z</time>
      </trkpt>
      <trkpt lat="40.75164920813073" lon="-74.01589361683381">
        <ele>0</ele>
        <time>2026-05-06T17:39:55.924Z</time>
      </trkpt>
      <trkpt lat="40.752082957206426" lon="-74.01605012032638">
        <ele>0</ele>
        <time>2026-05-06T17:40:18.294Z</time>
      </trkpt>
      <trkpt lat="40.752516706282115" lon="-74.01620662381897">
        <ele>0</ele>
        <time>2026-05-06T17:40:40.664Z</time>
      </trkpt>
      <trkpt lat="40.752950455357805" lon="-74.01636312731155">
        <ele>0</ele>
        <time>2026-05-06T17:41:03.034Z</time>
      </trkpt>
      <trkpt lat="40.7531275814533" lon="-74.0164270371943">
        <ele>0</ele>
        <time>2026-05-06T17:41:12.169Z</time>
      </trkpt>
      <trkpt lat="40.75348841681543" lon="-74.01678123430192">
        <ele>0</ele>
        <time>2026-05-06T17:41:34.539Z</time>
      </trkpt>
      <trkpt lat="40.75373749447911" lon="-74.01702572970703">
        <ele>0</ele>
        <time>2026-05-06T17:41:49.980Z</time>
      </trkpt>
      <trkpt lat="40.753805142254905" lon="-74.01643889175894">
        <ele>0</ele>
        <time>2026-05-06T17:42:12.350Z</time>
      </trkpt>
      <trkpt lat="40.75384696545581" lon="-74.016076079514">
        <ele>0</ele>
        <time>2026-05-06T17:42:26.180Z</time>
      </trkpt>
      <trkpt lat="40.7535811070573" lon="-74.01578705554239">
        <ele>0</ele>
        <time>2026-05-06T17:42:43.313Z</time>
      </trkpt>
      <trkpt lat="40.75394079757797" lon="-74.01549803157084">
        <ele>0</ele>
        <time>2026-05-06T17:43:04.261Z</time>
      </trkpt>
      <trkpt lat="40.75414189172466" lon="-74.01602896019571">
        <ele>0</ele>
        <time>2026-05-06T17:43:26.631Z</time>
      </trkpt>
      <trkpt lat="40.754206654538166" lon="-74.01619994693046">
        <ele>0</ele>
        <time>2026-05-06T17:43:33.835Z</time>
      </trkpt>
      <trkpt lat="40.754550703143764" lon="-74.01615865779179">
        <ele>0</ele>
        <time>2026-05-06T17:43:51.021Z</time>
      </trkpt>
      <trkpt lat="40.754628895760305" lon="-74.0156012544177">
        <ele>0</ele>
        <time>2026-05-06T17:44:12.384Z</time>
      </trkpt>
      <trkpt lat="40.75445687188238" lon="-74.01535351958476">
        <ele>0</ele>
        <time>2026-05-06T17:44:25.048Z</time>
      </trkpt>
      <trkpt lat="40.754222293149866" lon="-74.01508514018278">
        <ele>0</ele>
        <time>2026-05-06T17:44:40.490Z</time>
      </trkpt>
      <trkpt lat="40.753831326755744" lon="-74.01504385104363">
        <ele>0</ele>
        <time>2026-05-06T17:45:00.002Z</time>
      </trkpt>
      <trkpt lat="40.7535811070573" lon="-74.01537416415438">
        <ele>0</ele>
        <time>2026-05-06T17:45:17.606Z</time>
      </trkpt>
      <trkpt lat="40.7531759624826" lon="-74.0151166555564">
        <ele>0</ele>
        <time>2026-05-06T17:45:39.976Z</time>
      </trkpt>
      <trkpt lat="40.75315885917996" lon="-74.01510578475185">
        <ele>0</ele>
        <time>2026-05-06T17:45:40.920Z</time>
      </trkpt>
      <trkpt lat="40.75337780285858" lon="-74.014610315086">
        <ele>0</ele>
        <time>2026-05-06T17:46:02.537Z</time>
      </trkpt>
      <trkpt lat="40.75344617691985" lon="-74.01402362694347">
        <ele>0</ele>
        <time>2026-05-06T17:46:24.907Z</time>
      </trkpt>
      <trkpt lat="40.75350291320845" lon="-74.01353679747697">
        <ele>0</ele>
        <time>2026-05-06T17:46:43.469Z</time>
      </trkpt>
      <trkpt lat="40.7534558406288" lon="-74.01294646811733">
        <ele>0</ele>
        <time>2026-05-06T17:47:05.839Z</time>
      </trkpt>
      <trkpt lat="40.753440358062534" lon="-74.01275230383953">
        <ele>0</ele>
        <time>2026-05-06T17:47:13.196Z</time>
      </trkpt>
      <trkpt lat="40.753449003775266" lon="-74.01215882290742">
        <ele>0</ele>
        <time>2026-05-06T17:47:35.566Z</time>
      </trkpt>
      <trkpt lat="40.75345599685454" lon="-74.01167878623052">
        <ele>0</ele>
        <time>2026-05-06T17:47:53.660Z</time>
      </trkpt>
      <trkpt lat="40.75348962691654" lon="-74.01108685775232">
        <ele>0</ele>
        <time>2026-05-06T17:48:16.030Z</time>
      </trkpt>
      <trkpt lat="40.75350291320845" lon="-74.01085300345393">
        <ele>0</ele>
        <time>2026-05-06T17:48:24.867Z</time>
      </trkpt>
      <trkpt lat="40.753529318163096" lon="-74.0102604364794">
        <ele>0</ele>
        <time>2026-05-06T17:48:47.237Z</time>
      </trkpt>
      <trkpt lat="40.75353419075856" lon="-74.0101510880943">
        <ele>0</ele>
        <time>2026-05-06T17:48:51.365Z</time>
      </trkpt>
      <trkpt lat="40.75351855198497" lon="-74.00963497385887">
        <ele>0</ele>
        <time>2026-05-06T17:49:10.830Z</time>
      </trkpt>
    </trkseg>
  </trk>
</gpx>
