<?xml version="1.0" encoding="UTF-8"?>
<gpx creator="https://gpx.studio" version="1.1" xmlns="http://www.topografix.com/GPX/1/1" xmlns:xsi="http://www.w3.org/2001/XMLSchema-instance" xsi:schemaLocation="http://www.topografix.com/GPX/1/1 http://www.topografix.com/GPX/1/1/gpx.xsd http://www.garmin.com/xmlschemas/GpxExtensions/v3 http://www.garmin.com/xmlschemas/GpxExtensionsv3.xsd http://www.garmin.com/xmlschemas/TrackPointExtension/v1 http://www.garmin.com/xmlschemas/TrackPointExtensionv1.xsd http://www.garmin.com/xmlschemas/PowerExtension/v1 http://www.garmin.com/xmlschemas/PowerExtensionv1.xsd http://www.topografix.com/GPX/gpx_style/0/2 http://www.topografix.com/GPX/gpx_style/0/2/gpx_style.xsd" xmlns:gpxtpx="http://www.garmin.com/xmlschemas/TrackPointExtension/v1" xmlns:gpxx="http://www.garmin.com/xmlschemas/GpxExtensions/v3" xmlns:gpxpx="http://www.garmin.com/xmlschemas/PowerExtension/v1" xmlns:gpx_style="http://www.topografix.com/GPX/gpx_style/0/2">
  <metadata>
    <name>New file 2</name>
    <author>
      <name>gpx.studio</name>
      <link href="https://gpx.studio"/>
    </author>
  </metadata>
  <trk>
    <name>New file 2</name>
    <trkseg>
      <trkpt lat="40.7518015272496" lon="-74.01027415810192">
        <ele>0</ele>
        <time>2026-04-27T17:00:00.000Z</time>
      </trkpt>
      <trkpt lat="40.75213299611433" lon="-74.01067525800126">
        <ele>0</ele>
        <time>2026-04-27T17:00:18.640Z</time>
      </trkpt>
      <trkpt lat="40.752464464979056" lon="-74.01107635790059">
        <ele>0</ele>
        <time>2026-04-27T17:00:37.280Z</time>
      </trkpt>
      <trkpt lat="40.752795933843785" lon="-74.01147745779993">
        <ele>0</ele>
        <time>2026-04-27T17:00:55.920Z</time>
      </trkpt>
      <trkpt lat="40.753127402708515" lon="-74.01187855769928">
        <ele>0</ele>
        <time>2026-04-27T17:01:14.560Z</time>
      </trkpt>
      <trkpt lat="40.753458871573244" lon="-74.01227965759861">
        <ele>0</ele>
        <time>2026-04-27T17:01:33.200Z</time>
      </trkpt>
      <trkpt lat="40.75379034043797" lon="-74.01268075749795">
        <ele>0</ele>
        <time>2026-04-27T17:01:51.840Z</time>
      </trkpt>
      <trkpt lat="40.753791542171484" lon="-74.01268221167733">
        <ele>0</ele>
        <time>2026-04-27T17:01:51.907Z</time>
      </trkpt>
      <trkpt lat="40.75417848260125" lon="-74.0129740969594">
        <ele>0</ele>
        <time>2026-04-27T17:02:10.381Z</time>
      </trkpt>
      <trkpt lat="40.754348738715535" lon="-74.01242469386526">
        <ele>0</ele>
        <time>2026-04-27T17:02:29.021Z</time>
      </trkpt>
      <trkpt lat="40.754427228830934" lon="-74.01217141243426">
        <ele>0</ele>
        <time>2026-04-27T17:02:37.614Z</time>
      </trkpt>
      <trkpt lat="40.75456356744235" lon="-74.01273706943282">
        <ele>0</ele>
        <time>2026-04-27T17:02:56.254Z</time>
      </trkpt>
      <trkpt lat="40.75462069747684" lon="-74.0129740969594">
        <ele>0</ele>
        <time>2026-04-27T17:03:04.064Z</time>
      </trkpt>
      <trkpt lat="40.75475610426254" lon="-74.01240804779829">
        <ele>0</ele>
        <time>2026-04-27T17:03:22.704Z</time>
      </trkpt>
      <trkpt lat="40.754891511048235" lon="-74.01184199863717">
        <ele>0</ele>
        <time>2026-04-27T17:03:41.344Z</time>
      </trkpt>
      <trkpt lat="40.754952356703626" lon="-74.01158764187055">
        <ele>0</ele>
        <time>2026-04-27T17:03:49.720Z</time>
      </trkpt>
      <trkpt lat="40.75450516720081" lon="-74.01152550079924">
        <ele>0</ele>
        <time>2026-04-27T17:04:08.360Z</time>
      </trkpt>
      <trkpt lat="40.754427228830934" lon="-74.01151467054993">
        <ele>0</ele>
        <time>2026-04-27T17:04:11.608Z</time>
      </trkpt>
      <trkpt lat="40.754289036595594" lon="-74.01104035696696">
        <ele>0</ele>
        <time>2026-04-27T17:04:27.566Z</time>
      </trkpt>
      <trkpt lat="40.754675875443084" lon="-74.01073773750245">
        <ele>0</ele>
        <time>2026-04-27T17:04:46.206Z</time>
      </trkpt>
      <trkpt lat="40.75503527125181" lon="-74.01045658640327">
        <ele>0</ele>
        <time>2026-04-27T17:05:03.524Z</time>
      </trkpt>
      <trkpt lat="40.75547858518378" lon="-74.01055596567284">
        <ele>0</ele>
        <time>2026-04-27T17:05:22.164Z</time>
      </trkpt>
      <trkpt lat="40.75592189911575" lon="-74.01065534494242">
        <ele>0</ele>
        <time>2026-04-27T17:05:40.804Z</time>
      </trkpt>
      <trkpt lat="40.756365213047715" lon="-74.01075472421199">
        <ele>0</ele>
        <time>2026-04-27T17:05:59.444Z</time>
      </trkpt>
      <trkpt lat="40.75650007788539" lon="-74.01078495734498">
        <ele>0</ele>
        <time>2026-04-27T17:06:05.114Z</time>
      </trkpt>
      <trkpt lat="40.756898401054656" lon="-74.01106040622045">
        <ele>0</ele>
        <time>2026-04-27T17:06:23.754Z</time>
      </trkpt>
      <trkpt lat="40.75729672422393" lon="-74.01133585509591">
        <ele>0</ele>
        <time>2026-04-27T17:06:42.394Z</time>
      </trkpt>
      <trkpt lat="40.75769504739319" lon="-74.01161130397138">
        <ele>0</ele>
        <time>2026-04-27T17:07:01.034Z</time>
      </trkpt>
      <trkpt lat="40.75809337056246" lon="-74.01188675284685">
        <ele>0</ele>
        <time>2026-04-27T17:07:19.674Z</time>
      </trkpt>
      <trkpt lat="40.75849169373173" lon="-74.0121622017223">
        <ele>0</ele>
        <time>2026-04-27T17:07:38.314Z</time>
      </trkpt>
      <trkpt lat="40.758890016901" lon="-74.01243765059778">
        <ele>0</ele>
        <time>2026-04-27T17:07:56.954Z</time>
      </trkpt>
      <trkpt lat="40.75928834007026" lon="-74.01271309947325">
        <ele>0</ele>
        <time>2026-04-27T17:08:15.594Z</time>
      </trkpt>
      <trkpt lat="40.759401957984494" lon="-74.01279166865807">
        <ele>0</ele>
        <time>2026-04-27T17:08:20.911Z</time>
      </trkpt>
      <trkpt lat="40.759828183562774" lon="-74.01298081798745">
        <ele>0</ele>
        <time>2026-04-27T17:08:39.551Z</time>
      </trkpt>
      <trkpt lat="40.760254409141055" lon="-74.01316996731686">
        <ele>0</ele>
        <time>2026-04-27T17:08:58.191Z</time>
      </trkpt>
      <trkpt lat="40.76068063471933" lon="-74.01335911664624">
        <ele>0</ele>
        <time>2026-04-27T17:09:16.831Z</time>
      </trkpt>
      <trkpt lat="40.76110686029761" lon="-74.01354826597564">
        <ele>0</ele>
        <time>2026-04-27T17:09:35.471Z</time>
      </trkpt>
      <trkpt lat="40.76153308587589" lon="-74.01373741530503">
        <ele>0</ele>
        <time>2026-04-27T17:09:54.111Z</time>
      </trkpt>
      <trkpt lat="40.76195931145417" lon="-74.01392656463443">
        <ele>0</ele>
        <time>2026-04-27T17:10:12.751Z</time>
      </trkpt>
      <trkpt lat="40.76238553703245" lon="-74.01411571396382">
        <ele>0</ele>
        <time>2026-04-27T17:10:31.391Z</time>
      </trkpt>
      <trkpt lat="40.762690602291684" lon="-74.01425109506751">
        <ele>0</ele>
        <time>2026-04-27T17:10:44.732Z</time>
      </trkpt>
      <trkpt lat="40.76313268154023" lon="-74.01414253732779">
        <ele>0</ele>
        <time>2026-04-27T17:11:03.372Z</time>
      </trkpt>
      <trkpt lat="40.76357476078878" lon="-74.01403397958806">
        <ele>0</ele>
        <time>2026-04-27T17:11:22.012Z</time>
      </trkpt>
      <trkpt lat="40.76401684003732" lon="-74.01392542184836">
        <ele>0</ele>
        <time>2026-04-27T17:11:40.652Z</time>
      </trkpt>
      <trkpt lat="40.764458919285865" lon="-74.01381686410863">
        <ele>0</ele>
        <time>2026-04-27T17:11:59.292Z</time>
      </trkpt>
      <trkpt lat="40.764900998534415" lon="-74.01370830636891">
        <ele>0</ele>
        <time>2026-04-27T17:12:17.932Z</time>
      </trkpt>
      <trkpt lat="40.76534307778296" lon="-74.01359974862919">
        <ele>0</ele>
        <time>2026-04-27T17:12:36.572Z</time>
      </trkpt>
      <trkpt lat="40.76578515703151" lon="-74.01349119088947">
        <ele>0</ele>
        <time>2026-04-27T17:12:55.212Z</time>
      </trkpt>
      <trkpt lat="40.76622723628005" lon="-74.01338263314975">
        <ele>0</ele>
        <time>2026-04-27T17:13:13.852Z</time>
      </trkpt>
      <trkpt lat="40.766669315528596" lon="-74.01327407541004">
        <ele>0</ele>
        <time>2026-04-27T17:13:32.492Z</time>
      </trkpt>
      <trkpt lat="40.767111394777146" lon="-74.01316551767032">
        <ele>0</ele>
        <time>2026-04-27T17:13:51.132Z</time>
      </trkpt>
      <trkpt lat="40.76755347402569" lon="-74.0130569599306">
        <ele>0</ele>
        <time>2026-04-27T17:14:09.772Z</time>
      </trkpt>
      <trkpt lat="40.76799555327423" lon="-74.01294840219087">
        <ele>0</ele>
        <time>2026-04-27T17:14:28.412Z</time>
      </trkpt>
      <trkpt lat="40.768033744403766" lon="-74.0129390239115">
        <ele>0</ele>
        <time>2026-04-27T17:14:30.022Z</time>
      </trkpt>
      <trkpt lat="40.76836448981002" lon="-74.01253677970061">
        <ele>0</ele>
        <time>2026-04-27T17:14:48.662Z</time>
      </trkpt>
      <trkpt lat="40.76869523521628" lon="-74.01213453548971">
        <ele>0</ele>
        <time>2026-04-27T17:15:07.302Z</time>
      </trkpt>
      <trkpt lat="40.76902598062253" lon="-74.01173229127882">
        <ele>0</ele>
        <time>2026-04-27T17:15:25.942Z</time>
      </trkpt>
      <trkpt lat="40.76935672602879" lon="-74.01133004706791">
        <ele>0</ele>
        <time>2026-04-27T17:15:44.582Z</time>
      </trkpt>
      <trkpt lat="40.76968747143504" lon="-74.01092780285703">
        <ele>0</ele>
        <time>2026-04-27T17:16:03.222Z</time>
      </trkpt>
      <trkpt lat="40.7700182168413" lon="-74.01052555864614">
        <ele>0</ele>
        <time>2026-04-27T17:16:21.862Z</time>
      </trkpt>
      <trkpt lat="40.77034896224755" lon="-74.01012331443523">
        <ele>0</ele>
        <time>2026-04-27T17:16:40.502Z</time>
      </trkpt>
      <trkpt lat="40.770679707653805" lon="-74.00972107022434">
        <ele>0</ele>
        <time>2026-04-27T17:16:59.142Z</time>
      </trkpt>
      <trkpt lat="40.771010453060065" lon="-74.00931882601344">
        <ele>0</ele>
        <time>2026-04-27T17:17:17.782Z</time>
      </trkpt>
      <trkpt lat="40.77134119846632" lon="-74.00891658180255">
        <ele>0</ele>
        <time>2026-04-27T17:17:36.422Z</time>
      </trkpt>
      <trkpt lat="40.771671943872576" lon="-74.00851433759166">
        <ele>0</ele>
        <time>2026-04-27T17:17:55.062Z</time>
      </trkpt>
      <trkpt lat="40.77200268927883" lon="-74.00811209338076">
        <ele>0</ele>
        <time>2026-04-27T17:18:13.702Z</time>
      </trkpt>
      <trkpt lat="40.77225038468623" lon="-74.00781085248124">
        <ele>0</ele>
        <time>2026-04-27T17:18:27.661Z</time>
      </trkpt>
      <trkpt lat="40.772636223020335" lon="-74.00750592166928">
        <ele>0</ele>
        <time>2026-04-27T17:18:46.301Z</time>
      </trkpt>
      <trkpt lat="40.77302206135444" lon="-74.00720099085733">
        <ele>0</ele>
        <time>2026-04-27T17:19:04.941Z</time>
      </trkpt>
      <trkpt lat="40.77340789968854" lon="-74.00689606004536">
        <ele>0</ele>
        <time>2026-04-27T17:19:23.581Z</time>
      </trkpt>
      <trkpt lat="40.77379373802265" lon="-74.0065911292334">
        <ele>0</ele>
        <time>2026-04-27T17:19:42.221Z</time>
      </trkpt>
      <trkpt lat="40.77417957635675" lon="-74.00628619842145">
        <ele>0</ele>
        <time>2026-04-27T17:20:00.861Z</time>
      </trkpt>
      <trkpt lat="40.774565414690855" lon="-74.00598126760949">
        <ele>0</ele>
        <time>2026-04-27T17:20:19.501Z</time>
      </trkpt>
      <trkpt lat="40.77495125302496" lon="-74.00567633679753">
        <ele>0</ele>
        <time>2026-04-27T17:20:38.141Z</time>
      </trkpt>
      <trkpt lat="40.77533709135906" lon="-74.00537140598557">
        <ele>0</ele>
        <time>2026-04-27T17:20:56.781Z</time>
      </trkpt>
      <trkpt lat="40.77572292969317" lon="-74.0050664751736">
        <ele>0</ele>
        <time>2026-04-27T17:21:15.421Z</time>
      </trkpt>
      <trkpt lat="40.77610876802727" lon="-74.00476154436166">
        <ele>0</ele>
        <time>2026-04-27T17:21:34.061Z</time>
      </trkpt>
      <trkpt lat="40.776494606361375" lon="-74.00445661354969">
        <ele>0</ele>
        <time>2026-04-27T17:21:52.701Z</time>
      </trkpt>
      <trkpt lat="40.77688044469548" lon="-74.00415168273773">
        <ele>0</ele>
        <time>2026-04-27T17:22:11.341Z</time>
      </trkpt>
      <trkpt lat="40.77726628302958" lon="-74.00384675192578">
        <ele>0</ele>
        <time>2026-04-27T17:22:29.981Z</time>
      </trkpt>
      <trkpt lat="40.77765212136369" lon="-74.00354182111381">
        <ele>0</ele>
        <time>2026-04-27T17:22:48.621Z</time>
      </trkpt>
      <trkpt lat="40.77784791493656" lon="-74.00338708404423">
        <ele>0</ele>
        <time>2026-04-27T17:22:58.080Z</time>
      </trkpt>
      <trkpt lat="40.778214095023316" lon="-74.00304243836963">
        <ele>0</ele>
        <time>2026-04-27T17:23:16.720Z</time>
      </trkpt>
      <trkpt lat="40.77858027511007" lon="-74.00269779269502">
        <ele>0</ele>
        <time>2026-04-27T17:23:35.360Z</time>
      </trkpt>
      <trkpt lat="40.77894645519683" lon="-74.00235314702041">
        <ele>0</ele>
        <time>2026-04-27T17:23:54.000Z</time>
      </trkpt>
      <trkpt lat="40.77931263528358" lon="-74.00200850134581">
        <ele>0</ele>
        <time>2026-04-27T17:24:12.640Z</time>
      </trkpt>
      <trkpt lat="40.77967881537034" lon="-74.00166385567121">
        <ele>0</ele>
        <time>2026-04-27T17:24:31.280Z</time>
      </trkpt>
      <trkpt lat="40.7800449954571" lon="-74.0013192099966">
        <ele>0</ele>
        <time>2026-04-27T17:24:49.920Z</time>
      </trkpt>
      <trkpt lat="40.780411175543854" lon="-74.000974564322">
        <ele>0</ele>
        <time>2026-04-27T17:25:08.560Z</time>
      </trkpt>
      <trkpt lat="40.78077735563061" lon="-74.00062991864739">
        <ele>0</ele>
        <time>2026-04-27T17:25:27.200Z</time>
      </trkpt>
      <trkpt lat="40.78114353571737" lon="-74.00028527297279">
        <ele>0</ele>
        <time>2026-04-27T17:25:45.840Z</time>
      </trkpt>
      <trkpt lat="40.78150971580413" lon="-73.99994062729817">
        <ele>0</ele>
        <time>2026-04-27T17:26:04.480Z</time>
      </trkpt>
      <trkpt lat="40.781875895890884" lon="-73.99959598162357">
        <ele>0</ele>
        <time>2026-04-27T17:26:23.120Z</time>
      </trkpt>
      <trkpt lat="40.782242075977635" lon="-73.99925133594897">
        <ele>0</ele>
        <time>2026-04-27T17:26:41.760Z</time>
      </trkpt>
      <trkpt lat="40.78260825606439" lon="-73.99890669027437">
        <ele>0</ele>
        <time>2026-04-27T17:27:00.400Z</time>
      </trkpt>
      <trkpt lat="40.78296194572286" lon="-73.99857380048775">
        <ele>0</ele>
        <time>2026-04-27T17:27:18.404Z</time>
      </trkpt>
      <trkpt lat="40.78330071594527" lon="-73.99818328786051">
        <ele>0</ele>
        <time>2026-04-27T17:27:37.044Z</time>
      </trkpt>
      <trkpt lat="40.78363948616769" lon="-73.9977927752333">
        <ele>0</ele>
        <time>2026-04-27T17:27:55.684Z</time>
      </trkpt>
      <trkpt lat="40.7839782563901" lon="-73.99740226260606">
        <ele>0</ele>
        <time>2026-04-27T17:28:14.324Z</time>
      </trkpt>
      <trkpt lat="40.78431702661251" lon="-73.99701174997882">
        <ele>0</ele>
        <time>2026-04-27T17:28:32.964Z</time>
      </trkpt>
      <trkpt lat="40.78465579683492" lon="-73.9966212373516">
        <ele>0</ele>
        <time>2026-04-27T17:28:51.604Z</time>
      </trkpt>
      <trkpt lat="40.78499456705733" lon="-73.99623072472437">
        <ele>0</ele>
        <time>2026-04-27T17:29:10.244Z</time>
      </trkpt>
      <trkpt lat="40.785333337279745" lon="-73.99584021209714">
        <ele>0</ele>
        <time>2026-04-27T17:29:28.884Z</time>
      </trkpt>
      <trkpt lat="40.78567210750216" lon="-73.9954496994699">
        <ele>0</ele>
        <time>2026-04-27T17:29:47.524Z</time>
      </trkpt>
      <trkpt lat="40.78601087772457" lon="-73.99505918684268">
        <ele>0</ele>
        <time>2026-04-27T17:30:06.164Z</time>
      </trkpt>
      <trkpt lat="40.786349647946984" lon="-73.99466867421545">
        <ele>0</ele>
        <time>2026-04-27T17:30:24.804Z</time>
      </trkpt>
      <trkpt lat="40.786562577994516" lon="-73.99442322208661">
        <ele>0</ele>
        <time>2026-04-27T17:30:36.520Z</time>
      </trkpt>
      <trkpt lat="40.786888193988254" lon="-73.99401364336462">
        <ele>0</ele>
        <time>2026-04-27T17:30:55.160Z</time>
      </trkpt>
      <trkpt lat="40.78714270161328" lon="-73.99369350888168">
        <ele>0</ele>
        <time>2026-04-27T17:31:09.729Z</time>
      </trkpt>
      <trkpt lat="40.78752982599248" lon="-73.99339137736226">
        <ele>0</ele>
        <time>2026-04-27T17:31:28.369Z</time>
      </trkpt>
      <trkpt lat="40.78775044473028" lon="-73.9932191952987">
        <ele>0</ele>
        <time>2026-04-27T17:31:38.992Z</time>
      </trkpt>
      <trkpt lat="40.78814085909952" lon="-73.99292453806837">
        <ele>0</ele>
        <time>2026-04-27T17:31:57.632Z</time>
      </trkpt>
      <trkpt lat="40.78852392792683" lon="-73.99263542473501">
        <ele>0</ele>
        <time>2026-04-27T17:32:15.921Z</time>
      </trkpt>
      <trkpt lat="40.78890597727845" lon="-73.9923222198832">
        <ele>0</ele>
        <time>2026-04-27T17:32:34.561Z</time>
      </trkpt>
      <trkpt lat="40.78928802663007" lon="-73.99200901503141">
        <ele>0</ele>
        <time>2026-04-27T17:32:53.201Z</time>
      </trkpt>
      <trkpt lat="40.7893250260249" lon="-73.9919786828507">
        <ele>0</ele>
        <time>2026-04-27T17:32:55.006Z</time>
      </trkpt>
      <trkpt lat="40.789735210013035" lon="-73.99173533998263">
        <ele>0</ele>
        <time>2026-04-27T17:33:13.646Z</time>
      </trkpt>
      <trkpt lat="40.79014539400118" lon="-73.99149199711454">
        <ele>0</ele>
        <time>2026-04-27T17:33:32.286Z</time>
      </trkpt>
      <trkpt lat="40.79054353341098" lon="-73.9912557997283">
        <ele>0</ele>
        <time>2026-04-27T17:33:50.379Z</time>
      </trkpt>
      <trkpt lat="40.79092911383598" lon="-73.99095022675695">
        <ele>0</ele>
        <time>2026-04-27T17:34:09.019Z</time>
      </trkpt>
      <trkpt lat="40.791314694260976" lon="-73.99064465378562">
        <ele>0</ele>
        <time>2026-04-27T17:34:27.659Z</time>
      </trkpt>
      <trkpt lat="40.79164846017039" lon="-73.99038014388299">
        <ele>0</ele>
        <time>2026-04-27T17:34:43.794Z</time>
      </trkpt>
      <trkpt lat="40.79203747099015" lon="-73.99008223595618">
        <ele>0</ele>
        <time>2026-04-27T17:35:02.434Z</time>
      </trkpt>
      <trkpt lat="40.79242648180991" lon="-73.98978432802937">
        <ele>0</ele>
        <time>2026-04-27T17:35:21.074Z</time>
      </trkpt>
      <trkpt lat="40.79281549262968" lon="-73.98948642010255">
        <ele>0</ele>
        <time>2026-04-27T17:35:39.714Z</time>
      </trkpt>
      <trkpt lat="40.79320450344944" lon="-73.98918851217574">
        <ele>0</ele>
        <time>2026-04-27T17:35:58.354Z</time>
      </trkpt>
      <trkpt lat="40.7935935142692" lon="-73.98889060424894">
        <ele>0</ele>
        <time>2026-04-27T17:36:16.994Z</time>
      </trkpt>
      <trkpt lat="40.79398252508896" lon="-73.98859269632213">
        <ele>0</ele>
        <time>2026-04-27T17:36:35.634Z</time>
      </trkpt>
      <trkpt lat="40.79437153590872" lon="-73.98829478839532">
        <ele>0</ele>
        <time>2026-04-27T17:36:54.274Z</time>
      </trkpt>
      <trkpt lat="40.794760546728476" lon="-73.98799688046851">
        <ele>0</ele>
        <time>2026-04-27T17:37:12.914Z</time>
      </trkpt>
      <trkpt lat="40.79514955754824" lon="-73.9876989725417">
        <ele>0</ele>
        <time>2026-04-27T17:37:31.554Z</time>
      </trkpt>
      <trkpt lat="40.795538568368" lon="-73.98740106461489">
        <ele>0</ele>
        <time>2026-04-27T17:37:50.194Z</time>
      </trkpt>
      <trkpt lat="40.79592757918776" lon="-73.98710315668808">
        <ele>0</ele>
        <time>2026-04-27T17:38:08.834Z</time>
      </trkpt>
      <trkpt lat="40.79631659000752" lon="-73.98680524876127">
        <ele>0</ele>
        <time>2026-04-27T17:38:27.474Z</time>
      </trkpt>
      <trkpt lat="40.79670560082728" lon="-73.98650734083446">
        <ele>0</ele>
        <time>2026-04-27T17:38:46.114Z</time>
      </trkpt>
      <trkpt lat="40.79709461164704" lon="-73.98620943290764">
        <ele>0</ele>
        <time>2026-04-27T17:39:04.754Z</time>
      </trkpt>
      <trkpt lat="40.79748362246681" lon="-73.98591152498084">
        <ele>0</ele>
        <time>2026-04-27T17:39:23.394Z</time>
      </trkpt>
      <trkpt lat="40.797872633286566" lon="-73.98561361705403">
        <ele>0</ele>
        <time>2026-04-27T17:39:42.034Z</time>
      </trkpt>
      <trkpt lat="40.79800915355946" lon="-73.98550906862144">
        <ele>0</ele>
        <time>2026-04-27T17:39:48.575Z</time>
      </trkpt>
      <trkpt lat="40.79841051973732" lon="-73.985241254524">
        <ele>0</ele>
        <time>2026-04-27T17:40:07.215Z</time>
      </trkpt>
      <trkpt lat="40.798811885915164" lon="-73.98497344042656">
        <ele>0</ele>
        <time>2026-04-27T17:40:25.855Z</time>
      </trkpt>
      <trkpt lat="40.79921325209302" lon="-73.9847056263291">
        <ele>0</ele>
        <time>2026-04-27T17:40:44.495Z</time>
      </trkpt>
      <trkpt lat="40.79961461827087" lon="-73.98443781223166">
        <ele>0</ele>
        <time>2026-04-27T17:41:03.135Z</time>
      </trkpt>
      <trkpt lat="40.80001598444872" lon="-73.98416999813422">
        <ele>0</ele>
        <time>2026-04-27T17:41:21.775Z</time>
      </trkpt>
      <trkpt lat="40.800417350626574" lon="-73.98390218403678">
        <ele>0</ele>
        <time>2026-04-27T17:41:40.415Z</time>
      </trkpt>
      <trkpt lat="40.80081871680443" lon="-73.98363436993932">
        <ele>0</ele>
        <time>2026-04-27T17:41:59.055Z</time>
      </trkpt>
      <trkpt lat="40.80122008298228" lon="-73.98336655584188">
        <ele>0</ele>
        <time>2026-04-27T17:42:17.695Z</time>
      </trkpt>
      <trkpt lat="40.80162144916013" lon="-73.98309874174444">
        <ele>0</ele>
        <time>2026-04-27T17:42:36.335Z</time>
      </trkpt>
      <trkpt lat="40.802022815337985" lon="-73.982830927647">
        <ele>0</ele>
        <time>2026-04-27T17:42:54.975Z</time>
      </trkpt>
      <trkpt lat="40.80242418151584" lon="-73.98256311354956">
        <ele>0</ele>
        <time>2026-04-27T17:43:13.615Z</time>
      </trkpt>
      <trkpt lat="40.802825547693686" lon="-73.9822952994521">
        <ele>0</ele>
        <time>2026-04-27T17:43:32.255Z</time>
      </trkpt>
      <trkpt lat="40.80322691387154" lon="-73.98202748535466">
        <ele>0</ele>
        <time>2026-04-27T17:43:50.895Z</time>
      </trkpt>
      <trkpt lat="40.803628280049395" lon="-73.98175967125722">
        <ele>0</ele>
        <time>2026-04-27T17:44:09.535Z</time>
      </trkpt>
      <trkpt lat="40.80402964622724" lon="-73.98149185715978">
        <ele>0</ele>
        <time>2026-04-27T17:44:28.175Z</time>
      </trkpt>
      <trkpt lat="40.8044310124051" lon="-73.98122404306233">
        <ele>0</ele>
        <time>2026-04-27T17:44:46.815Z</time>
      </trkpt>
      <trkpt lat="40.80454725075151" lon="-73.98114648229725">
        <ele>0</ele>
        <time>2026-04-27T17:44:52.213Z</time>
      </trkpt>
      <trkpt lat="40.80493655473932" lon="-73.98084918354868">
        <ele>0</ele>
        <time>2026-04-27T17:45:10.853Z</time>
      </trkpt>
      <trkpt lat="40.80532585872713" lon="-73.98055188480011">
        <ele>0</ele>
        <time>2026-04-27T17:45:29.493Z</time>
      </trkpt>
      <trkpt lat="40.80571516271493" lon="-73.98025458605154">
        <ele>0</ele>
        <time>2026-04-27T17:45:48.133Z</time>
      </trkpt>
      <trkpt lat="40.80610446670274" lon="-73.97995728730297">
        <ele>0</ele>
        <time>2026-04-27T17:46:06.773Z</time>
      </trkpt>
      <trkpt lat="40.80649377069055" lon="-73.9796599885544">
        <ele>0</ele>
        <time>2026-04-27T17:46:25.413Z</time>
      </trkpt>
      <trkpt lat="40.80688307467836" lon="-73.97936268980582">
        <ele>0</ele>
        <time>2026-04-27T17:46:44.053Z</time>
      </trkpt>
      <trkpt lat="40.80727237866617" lon="-73.97906539105726">
        <ele>0</ele>
        <time>2026-04-27T17:47:02.693Z</time>
      </trkpt>
      <trkpt lat="40.80766168265398" lon="-73.97876809230868">
        <ele>0</ele>
        <time>2026-04-27T17:47:21.333Z</time>
      </trkpt>
      <trkpt lat="40.80805098664178" lon="-73.97847079356012">
        <ele>0</ele>
        <time>2026-04-27T17:47:39.973Z</time>
      </trkpt>
      <trkpt lat="40.80844029062959" lon="-73.97817349481154">
        <ele>0</ele>
        <time>2026-04-27T17:47:58.613Z</time>
      </trkpt>
      <trkpt lat="40.8088295946174" lon="-73.97787619606298">
        <ele>0</ele>
        <time>2026-04-27T17:48:17.253Z</time>
      </trkpt>
      <trkpt lat="40.80921889860521" lon="-73.9775788973144">
        <ele>0</ele>
        <time>2026-04-27T17:48:35.893Z</time>
      </trkpt>
      <trkpt lat="40.80960820259302" lon="-73.97728159856584">
        <ele>0</ele>
        <time>2026-04-27T17:48:54.533Z</time>
      </trkpt>
      <trkpt lat="40.80999750658082" lon="-73.97698429981726">
        <ele>0</ele>
        <time>2026-04-27T17:49:13.173Z</time>
      </trkpt>
      <trkpt lat="40.81038681056863" lon="-73.9766870010687">
        <ele>0</ele>
        <time>2026-04-27T17:49:31.813Z</time>
      </trkpt>
      <trkpt lat="40.81077611455644" lon="-73.97638970232012">
        <ele>0</ele>
        <time>2026-04-27T17:49:50.453Z</time>
      </trkpt>
      <trkpt lat="40.81116541854425" lon="-73.97609240357156">
        <ele>0</ele>
        <time>2026-04-27T17:50:09.093Z</time>
      </trkpt>
      <trkpt lat="40.81155472253206" lon="-73.97579510482298">
        <ele>0</ele>
        <time>2026-04-27T17:50:27.733Z</time>
      </trkpt>
      <trkpt lat="40.81180224284711" lon="-73.97560608163747">
        <ele>0</ele>
        <time>2026-04-27T17:50:39.584Z</time>
      </trkpt>
      <trkpt lat="40.81218667517531" lon="-73.97529788355155">
        <ele>0</ele>
        <time>2026-04-27T17:50:58.224Z</time>
      </trkpt>
      <trkpt lat="40.81257110750352" lon="-73.97498968546564">
        <ele>0</ele>
        <time>2026-04-27T17:51:16.864Z</time>
      </trkpt>
      <trkpt lat="40.81295553983173" lon="-73.97468148737973">
        <ele>0</ele>
        <time>2026-04-27T17:51:35.504Z</time>
      </trkpt>
      <trkpt lat="40.81333997215994" lon="-73.97437328929382">
        <ele>0</ele>
        <time>2026-04-27T17:51:54.144Z</time>
      </trkpt>
      <trkpt lat="40.81372440448814" lon="-73.9740650912079">
        <ele>0</ele>
        <time>2026-04-27T17:52:12.784Z</time>
      </trkpt>
      <trkpt lat="40.814108836816345" lon="-73.97375689312199">
        <ele>0</ele>
        <time>2026-04-27T17:52:31.424Z</time>
      </trkpt>
      <trkpt lat="40.814493269144556" lon="-73.97344869503608">
        <ele>0</ele>
        <time>2026-04-27T17:52:50.064Z</time>
      </trkpt>
      <trkpt lat="40.81487770147276" lon="-73.97314049695017">
        <ele>0</ele>
        <time>2026-04-27T17:53:08.704Z</time>
      </trkpt>
      <trkpt lat="40.815262133800964" lon="-73.97283229886425">
        <ele>0</ele>
        <time>2026-04-27T17:53:27.344Z</time>
      </trkpt>
      <trkpt lat="40.815646566129175" lon="-73.97252410077834">
        <ele>0</ele>
        <time>2026-04-27T17:53:45.984Z</time>
      </trkpt>
      <trkpt lat="40.81603099845738" lon="-73.97221590269243">
        <ele>0</ele>
        <time>2026-04-27T17:54:04.624Z</time>
      </trkpt>
      <trkpt lat="40.81641543078559" lon="-73.97190770460652">
        <ele>0</ele>
        <time>2026-04-27T17:54:23.264Z</time>
      </trkpt>
      <trkpt lat="40.81679986311379" lon="-73.9715995065206">
        <ele>0</ele>
        <time>2026-04-27T17:54:41.904Z</time>
      </trkpt>
      <trkpt lat="40.817184295442" lon="-73.97129130843469">
        <ele>0</ele>
        <time>2026-04-27T17:55:00.544Z</time>
      </trkpt>
      <trkpt lat="40.81756872777021" lon="-73.97098311034878">
        <ele>0</ele>
        <time>2026-04-27T17:55:19.184Z</time>
      </trkpt>
      <trkpt lat="40.81795316009841" lon="-73.97067491226287">
        <ele>0</ele>
        <time>2026-04-27T17:55:37.824Z</time>
      </trkpt>
      <trkpt lat="40.81833759242662" lon="-73.97036671417695">
        <ele>0</ele>
        <time>2026-04-27T17:55:56.464Z</time>
      </trkpt>
      <trkpt lat="40.81855122540486" lon="-73.97019544534717">
        <ele>0</ele>
        <time>2026-04-27T17:56:06.822Z</time>
      </trkpt>
      <trkpt lat="40.81841128381708" lon="-73.96963078126528">
        <ele>0</ele>
        <time>2026-04-27T17:56:25.462Z</time>
      </trkpt>
      <trkpt lat="40.81827134222929" lon="-73.96906611718337">
        <ele>0</ele>
        <time>2026-04-27T17:56:44.102Z</time>
      </trkpt>
      <trkpt lat="40.81817283113244" lon="-73.96866862506586">
        <ele>0</ele>
        <time>2026-04-27T17:56:57.223Z</time>
      </trkpt>
      <trkpt lat="40.81772618080033" lon="-73.96873725528663">
        <ele>0</ele>
        <time>2026-04-27T17:57:15.863Z</time>
      </trkpt>
      <trkpt lat="40.817279530468205" lon="-73.9688058855074">
        <ele>0</ele>
        <time>2026-04-27T17:57:34.503Z</time>
      </trkpt>
      <trkpt lat="40.81683288013609" lon="-73.96887451572816">
        <ele>0</ele>
        <time>2026-04-27T17:57:53.143Z</time>
      </trkpt>
      <trkpt lat="40.816386229803975" lon="-73.96894314594893">
        <ele>0</ele>
        <time>2026-04-27T17:58:11.783Z</time>
      </trkpt>
      <trkpt lat="40.81593957947186" lon="-73.9690117761697">
        <ele>0</ele>
        <time>2026-04-27T17:58:30.423Z</time>
      </trkpt>
      <trkpt lat="40.81549292913974" lon="-73.96908040639046">
        <ele>0</ele>
        <time>2026-04-27T17:58:49.063Z</time>
      </trkpt>
      <trkpt lat="40.81504627880762" lon="-73.96914903661123">
        <ele>0</ele>
        <time>2026-04-27T17:59:07.703Z</time>
      </trkpt>
      <trkpt lat="40.814599628475506" lon="-73.969217666832">
        <ele>0</ele>
        <time>2026-04-27T17:59:26.343Z</time>
      </trkpt>
      <trkpt lat="40.81446003150677" lon="-73.96923911665547">
        <ele>0</ele>
        <time>2026-04-27T17:59:32.168Z</time>
      </trkpt>
      <trkpt lat="40.814194201138335" lon="-73.96971829034457">
        <ele>0</ele>
        <time>2026-04-27T17:59:50.808Z</time>
      </trkpt>
      <trkpt lat="40.813928370769894" lon="-73.97019746403367">
        <ele>0</ele>
        <time>2026-04-27T18:00:09.448Z</time>
      </trkpt>
      <trkpt lat="40.81366254040146" lon="-73.97067663772276">
        <ele>0</ele>
        <time>2026-04-27T18:00:28.088Z</time>
      </trkpt>
      <trkpt lat="40.81339671003302" lon="-73.97115581141186">
        <ele>0</ele>
        <time>2026-04-27T18:00:46.728Z</time>
      </trkpt>
      <trkpt lat="40.813130879664584" lon="-73.97163498510096">
        <ele>0</ele>
        <time>2026-04-27T18:01:05.368Z</time>
      </trkpt>
      <trkpt lat="40.81286504929614" lon="-73.97211415879006">
        <ele>0</ele>
        <time>2026-04-27T18:01:24.008Z</time>
      </trkpt>
      <trkpt lat="40.81259921892771" lon="-73.97259333247915">
        <ele>0</ele>
        <time>2026-04-27T18:01:42.648Z</time>
      </trkpt>
      <trkpt lat="40.812333388559274" lon="-73.97307250616825">
        <ele>0</ele>
        <time>2026-04-27T18:02:01.288Z</time>
      </trkpt>
      <trkpt lat="40.81206755819083" lon="-73.97355167985735">
        <ele>0</ele>
        <time>2026-04-27T18:02:19.928Z</time>
      </trkpt>
      <trkpt lat="40.8118017278224" lon="-73.97403085354645">
        <ele>0</ele>
        <time>2026-04-27T18:02:38.568Z</time>
      </trkpt>
      <trkpt lat="40.81153589745396" lon="-73.97451002723554">
        <ele>0</ele>
        <time>2026-04-27T18:02:57.208Z</time>
      </trkpt>
      <trkpt lat="40.81127006708552" lon="-73.97498920092464">
        <ele>0</ele>
        <time>2026-04-27T18:03:15.848Z</time>
      </trkpt>
      <trkpt lat="40.81100423671709" lon="-73.97546837461374">
        <ele>0</ele>
        <time>2026-04-27T18:03:34.488Z</time>
      </trkpt>
      <trkpt lat="40.81073840634865" lon="-73.97594754830284">
        <ele>0</ele>
        <time>2026-04-27T18:03:53.128Z</time>
      </trkpt>
      <trkpt lat="40.810472575980214" lon="-73.97642672199194">
        <ele>0</ele>
        <time>2026-04-27T18:04:11.768Z</time>
      </trkpt>
      <trkpt lat="40.81020674561177" lon="-73.97690589568103">
        <ele>0</ele>
        <time>2026-04-27T18:04:30.408Z</time>
      </trkpt>
      <trkpt lat="40.80994091524334" lon="-73.97738506937013">
        <ele>0</ele>
        <time>2026-04-27T18:04:49.048Z</time>
      </trkpt>
      <trkpt lat="40.8096750848749" lon="-73.97786424305923">
        <ele>0</ele>
        <time>2026-04-27T18:05:07.688Z</time>
      </trkpt>
      <trkpt lat="40.80940925450646" lon="-73.97834341674833">
        <ele>0</ele>
        <time>2026-04-27T18:05:26.328Z</time>
      </trkpt>
      <trkpt lat="40.80914342413803" lon="-73.97882259043742">
        <ele>0</ele>
        <time>2026-04-27T18:05:44.969Z</time>
      </trkpt>
      <trkpt lat="40.80887759376959" lon="-73.97930176412652">
        <ele>0</ele>
        <time>2026-04-27T18:06:03.610Z</time>
      </trkpt>
      <trkpt lat="40.808791759506505" lon="-73.9794564850515">
        <ele>0</ele>
        <time>2026-04-27T18:06:09.629Z</time>
      </trkpt>
      <trkpt lat="40.808343837820196" lon="-73.9794042973454">
        <ele>0</ele>
        <time>2026-04-27T18:06:28.269Z</time>
      </trkpt>
      <trkpt lat="40.80789591613389" lon="-73.97935210963928">
        <ele>0</ele>
        <time>2026-04-27T18:06:46.909Z</time>
      </trkpt>
      <trkpt lat="40.807447994447585" lon="-73.97929992193318">
        <ele>0</ele>
        <time>2026-04-27T18:07:05.549Z</time>
      </trkpt>
      <trkpt lat="40.80700007276128" lon="-73.97924773422707">
        <ele>0</ele>
        <time>2026-04-27T18:07:24.189Z</time>
      </trkpt>
      <trkpt lat="40.80655215107497" lon="-73.97919554652096">
        <ele>0</ele>
        <time>2026-04-27T18:07:42.829Z</time>
      </trkpt>
      <trkpt lat="40.80610422938866" lon="-73.97914335881485">
        <ele>0</ele>
        <time>2026-04-27T18:08:01.469Z</time>
      </trkpt>
      <trkpt lat="40.80565630770235" lon="-73.97909117110875">
        <ele>0</ele>
        <time>2026-04-27T18:08:20.109Z</time>
      </trkpt>
      <trkpt lat="40.80520838601605" lon="-73.97903898340263">
        <ele>0</ele>
        <time>2026-04-27T18:08:38.749Z</time>
      </trkpt>
      <trkpt lat="40.80476046432974" lon="-73.97898679569653">
        <ele>0</ele>
        <time>2026-04-27T18:08:57.389Z</time>
      </trkpt>
      <trkpt lat="40.80431254264343" lon="-73.97893460799042">
        <ele>0</ele>
        <time>2026-04-27T18:09:16.029Z</time>
      </trkpt>
      <trkpt lat="40.80386462095712" lon="-73.97888242028431">
        <ele>0</ele>
        <time>2026-04-27T18:09:34.669Z</time>
      </trkpt>
      <trkpt lat="40.80341669927081" lon="-73.9788302325782">
        <ele>0</ele>
        <time>2026-04-27T18:09:53.309Z</time>
      </trkpt>
      <trkpt lat="40.80296877758451" lon="-73.9787780448721">
        <ele>0</ele>
        <time>2026-04-27T18:10:11.949Z</time>
      </trkpt>
      <trkpt lat="40.80264643113489" lon="-73.97874048803506">
        <ele>0</ele>
        <time>2026-04-27T18:10:25.363Z</time>
      </trkpt>
      <trkpt lat="40.8023961868262" lon="-73.97923401260009">
        <ele>0</ele>
        <time>2026-04-27T18:10:44.003Z</time>
      </trkpt>
      <trkpt lat="40.802145942517505" lon="-73.97972753716512">
        <ele>0</ele>
        <time>2026-04-27T18:11:02.643Z</time>
      </trkpt>
      <trkpt lat="40.80189569820882" lon="-73.98022106173016">
        <ele>0</ele>
        <time>2026-04-27T18:11:21.283Z</time>
      </trkpt>
      <trkpt lat="40.80164545390013" lon="-73.98071458629519">
        <ele>0</ele>
        <time>2026-04-27T18:11:39.923Z</time>
      </trkpt>
      <trkpt lat="40.80139520959144" lon="-73.98120811086022">
        <ele>0</ele>
        <time>2026-04-27T18:11:58.563Z</time>
      </trkpt>
      <trkpt lat="40.801144965282745" lon="-73.98170163542525">
        <ele>0</ele>
        <time>2026-04-27T18:12:17.203Z</time>
      </trkpt>
      <trkpt lat="40.80089472097406" lon="-73.9821951599903">
        <ele>0</ele>
        <time>2026-04-27T18:12:35.843Z</time>
      </trkpt>
      <trkpt lat="40.80064447666537" lon="-73.98268868455533">
        <ele>0</ele>
        <time>2026-04-27T18:12:54.483Z</time>
      </trkpt>
      <trkpt lat="40.80039423235667" lon="-73.98318220912036">
        <ele>0</ele>
        <time>2026-04-27T18:13:13.123Z</time>
      </trkpt>
      <trkpt lat="40.800143988047985" lon="-73.98367573368539">
        <ele>0</ele>
        <time>2026-04-27T18:13:31.763Z</time>
      </trkpt>
      <trkpt lat="40.7998937437393" lon="-73.98416925825042">
        <ele>0</ele>
        <time>2026-04-27T18:13:50.403Z</time>
      </trkpt>
      <trkpt lat="40.7996434994306" lon="-73.98466278281546">
        <ele>0</ele>
        <time>2026-04-27T18:14:09.043Z</time>
      </trkpt>
      <trkpt lat="40.79939325512191" lon="-73.98515630738049">
        <ele>0</ele>
        <time>2026-04-27T18:14:27.683Z</time>
      </trkpt>
      <trkpt lat="40.799143010813225" lon="-73.98564983194552">
        <ele>0</ele>
        <time>2026-04-27T18:14:46.323Z</time>
      </trkpt>
      <trkpt lat="40.79889276650454" lon="-73.98614335651055">
        <ele>0</ele>
        <time>2026-04-27T18:15:04.963Z</time>
      </trkpt>
      <trkpt lat="40.79864252219584" lon="-73.98663688107558">
        <ele>0</ele>
        <time>2026-04-27T18:15:23.603Z</time>
      </trkpt>
      <trkpt lat="40.79839227788715" lon="-73.98713040564063">
        <ele>0</ele>
        <time>2026-04-27T18:15:42.243Z</time>
      </trkpt>
      <trkpt lat="40.798142033578465" lon="-73.98762393020566">
        <ele>0</ele>
        <time>2026-04-27T18:16:00.884Z</time>
      </trkpt>
      <trkpt lat="40.79813750144939" lon="-73.98763286833912">
        <ele>0</ele>
        <time>2026-04-27T18:16:01.221Z</time>
      </trkpt>
      <trkpt lat="40.79769801157119" lon="-73.98750725764609">
        <ele>0</ele>
        <time>2026-04-27T18:16:19.861Z</time>
      </trkpt>
      <trkpt lat="40.797258521692996" lon="-73.98738164695305">
        <ele>0</ele>
        <time>2026-04-27T18:16:38.501Z</time>
      </trkpt>
      <trkpt lat="40.7968190318148" lon="-73.98725603626002">
        <ele>0</ele>
        <time>2026-04-27T18:16:57.141Z</time>
      </trkpt>
      <trkpt lat="40.7963795419366" lon="-73.98713042556699">
        <ele>0</ele>
        <time>2026-04-27T18:17:15.781Z</time>
      </trkpt>
      <trkpt lat="40.795940052058405" lon="-73.98700481487397">
        <ele>0</ele>
        <time>2026-04-27T18:17:34.421Z</time>
      </trkpt>
      <trkpt lat="40.79550056218021" lon="-73.98687920418094">
        <ele>0</ele>
        <time>2026-04-27T18:17:53.061Z</time>
      </trkpt>
      <trkpt lat="40.79506107230202" lon="-73.9867535934879">
        <ele>0</ele>
        <time>2026-04-27T18:18:11.701Z</time>
      </trkpt>
      <trkpt lat="40.79462158242382" lon="-73.98662798279487">
        <ele>0</ele>
        <time>2026-04-27T18:18:30.341Z</time>
      </trkpt>
      <trkpt lat="40.794182092545626" lon="-73.98650237210184">
        <ele>0</ele>
        <time>2026-04-27T18:18:48.981Z</time>
      </trkpt>
      <trkpt lat="40.79374260266743" lon="-73.9863767614088">
        <ele>0</ele>
        <time>2026-04-27T18:19:07.621Z</time>
      </trkpt>
      <trkpt lat="40.79330311278923" lon="-73.98625115071577">
        <ele>0</ele>
        <time>2026-04-27T18:19:26.261Z</time>
      </trkpt>
      <trkpt lat="40.792863622911035" lon="-73.98612554002274">
        <ele>0</ele>
        <time>2026-04-27T18:19:44.901Z</time>
      </trkpt>
      <trkpt lat="40.79242413303284" lon="-73.98599992932971">
        <ele>0</ele>
        <time>2026-04-27T18:20:03.541Z</time>
      </trkpt>
      <trkpt lat="40.79198464315464" lon="-73.98587431863668">
        <ele>0</ele>
        <time>2026-04-27T18:20:22.181Z</time>
      </trkpt>
      <trkpt lat="40.791545153276445" lon="-73.98574870794366">
        <ele>0</ele>
        <time>2026-04-27T18:20:40.821Z</time>
      </trkpt>
      <trkpt lat="40.7912123436227" lon="-73.98565358754765">
        <ele>0</ele>
        <time>2026-04-27T18:20:54.936Z</time>
      </trkpt>
      <trkpt lat="40.79097749471918" lon="-73.98616005419511">
        <ele>0</ele>
        <time>2026-04-27T18:21:13.576Z</time>
      </trkpt>
      <trkpt lat="40.790742645815655" lon="-73.98666652084259">
        <ele>0</ele>
        <time>2026-04-27T18:21:32.216Z</time>
      </trkpt>
      <trkpt lat="40.790507796912124" lon="-73.98717298749006">
        <ele>0</ele>
        <time>2026-04-27T18:21:50.856Z</time>
      </trkpt>
      <trkpt lat="40.7902729480086" lon="-73.98767945413753">
        <ele>0</ele>
        <time>2026-04-27T18:22:09.496Z</time>
      </trkpt>
      <trkpt lat="40.790038099105075" lon="-73.988185920785">
        <ele>0</ele>
        <time>2026-04-27T18:22:28.136Z</time>
      </trkpt>
      <trkpt lat="40.78980325020155" lon="-73.98869238743247">
        <ele>0</ele>
        <time>2026-04-27T18:22:46.776Z</time>
      </trkpt>
      <trkpt lat="40.78956840129803" lon="-73.98919885407994">
        <ele>0</ele>
        <time>2026-04-27T18:23:05.416Z</time>
      </trkpt>
      <trkpt lat="40.789333552394496" lon="-73.98970532072741">
        <ele>0</ele>
        <time>2026-04-27T18:23:24.056Z</time>
      </trkpt>
      <trkpt lat="40.78909870349097" lon="-73.99021178737489">
        <ele>0</ele>
        <time>2026-04-27T18:23:42.696Z</time>
      </trkpt>
      <trkpt lat="40.78886385458745" lon="-73.99071825402235">
        <ele>0</ele>
        <time>2026-04-27T18:24:01.336Z</time>
      </trkpt>
      <trkpt lat="40.78862900568392" lon="-73.99122472066982">
        <ele>0</ele>
        <time>2026-04-27T18:24:19.976Z</time>
      </trkpt>
      <trkpt lat="40.7883941567804" lon="-73.9917311873173">
        <ele>0</ele>
        <time>2026-04-27T18:24:38.616Z</time>
      </trkpt>
      <trkpt lat="40.78815930787687" lon="-73.99223765396476">
        <ele>0</ele>
        <time>2026-04-27T18:24:57.256Z</time>
      </trkpt>
      <trkpt lat="40.78792445897334" lon="-73.99274412061224">
        <ele>0</ele>
        <time>2026-04-27T18:25:15.896Z</time>
      </trkpt>
      <trkpt lat="40.78768961006982" lon="-73.99325058725971">
        <ele>0</ele>
        <time>2026-04-27T18:25:34.536Z</time>
      </trkpt>
      <trkpt lat="40.787454761166295" lon="-73.99375705390717">
        <ele>0</ele>
        <time>2026-04-27T18:25:53.176Z</time>
      </trkpt>
      <trkpt lat="40.78721991226277" lon="-73.99426352055465">
        <ele>0</ele>
        <time>2026-04-27T18:26:11.816Z</time>
      </trkpt>
      <trkpt lat="40.78698506335924" lon="-73.99476998720212">
        <ele>0</ele>
        <time>2026-04-27T18:26:30.456Z</time>
      </trkpt>
      <trkpt lat="40.786750214455715" lon="-73.9952764538496">
        <ele>0</ele>
        <time>2026-04-27T18:26:49.096Z</time>
      </trkpt>
      <trkpt lat="40.78651536555219" lon="-73.99578292049706">
        <ele>0</ele>
        <time>2026-04-27T18:27:07.737Z</time>
      </trkpt>
      <trkpt lat="40.78628051664867" lon="-73.99628938714453">
        <ele>0</ele>
        <time>2026-04-27T18:27:26.378Z</time>
      </trkpt>
      <trkpt lat="40.786084705903846" lon="-73.99671166551151">
        <ele>0</ele>
        <time>2026-04-27T18:27:41.920Z</time>
      </trkpt>
      <trkpt lat="40.78563536494421" lon="-73.9967340383734">
        <ele>0</ele>
        <time>2026-04-27T18:28:00.560Z</time>
      </trkpt>
      <trkpt lat="40.78518602398457" lon="-73.9967564112353">
        <ele>0</ele>
        <time>2026-04-27T18:28:19.200Z</time>
      </trkpt>
      <trkpt lat="40.78473668302494" lon="-73.99677878409717">
        <ele>0</ele>
        <time>2026-04-27T18:28:37.840Z</time>
      </trkpt>
      <trkpt lat="40.784287342065305" lon="-73.99680115695907">
        <ele>0</ele>
        <time>2026-04-27T18:28:56.480Z</time>
      </trkpt>
      <trkpt lat="40.78383800110567" lon="-73.99682352982096">
        <ele>0</ele>
        <time>2026-04-27T18:29:15.120Z</time>
      </trkpt>
      <trkpt lat="40.78338866014603" lon="-73.99684590268285">
        <ele>0</ele>
        <time>2026-04-27T18:29:33.760Z</time>
      </trkpt>
      <trkpt lat="40.7829393191864" lon="-73.99686827554473">
        <ele>0</ele>
        <time>2026-04-27T18:29:52.400Z</time>
      </trkpt>
      <trkpt lat="40.782489978226764" lon="-73.99689064840662">
        <ele>0</ele>
        <time>2026-04-27T18:30:11.040Z</time>
      </trkpt>
      <trkpt lat="40.78204063726712" lon="-73.99691302126851">
        <ele>0</ele>
        <time>2026-04-27T18:30:29.680Z</time>
      </trkpt>
      <trkpt lat="40.78159129630749" lon="-73.9969353941304">
        <ele>0</ele>
        <time>2026-04-27T18:30:48.320Z</time>
      </trkpt>
      <trkpt lat="40.781141955347856" lon="-73.9969577669923">
        <ele>0</ele>
        <time>2026-04-27T18:31:06.960Z</time>
      </trkpt>
      <trkpt lat="40.78069261438822" lon="-73.99698013985417">
        <ele>0</ele>
        <time>2026-04-27T18:31:25.600Z</time>
      </trkpt>
      <trkpt lat="40.78024327342858" lon="-73.99700251271607">
        <ele>0</ele>
        <time>2026-04-27T18:31:44.240Z</time>
      </trkpt>
      <trkpt lat="40.77979393246895" lon="-73.99702488557796">
        <ele>0</ele>
        <time>2026-04-27T18:32:02.880Z</time>
      </trkpt>
      <trkpt lat="40.77963839276265" lon="-73.99703262996069">
        <ele>0</ele>
        <time>2026-04-27T18:32:09.332Z</time>
      </trkpt>
      <trkpt lat="40.77920935107949" lon="-73.9972103744175">
        <ele>0</ele>
        <time>2026-04-27T18:32:27.972Z</time>
      </trkpt>
      <trkpt lat="40.77878030939632" lon="-73.99738811887433">
        <ele>0</ele>
        <time>2026-04-27T18:32:46.612Z</time>
      </trkpt>
      <trkpt lat="40.778351267713155" lon="-73.99756586333116">
        <ele>0</ele>
        <time>2026-04-27T18:33:05.252Z</time>
      </trkpt>
      <trkpt lat="40.77792222602999" lon="-73.99774360778798">
        <ele>0</ele>
        <time>2026-04-27T18:33:23.892Z</time>
      </trkpt>
      <trkpt lat="40.777493184346824" lon="-73.9979213522448">
        <ele>0</ele>
        <time>2026-04-27T18:33:42.532Z</time>
      </trkpt>
      <trkpt lat="40.77706414266366" lon="-73.99809909670162">
        <ele>0</ele>
        <time>2026-04-27T18:34:01.172Z</time>
      </trkpt>
      <trkpt lat="40.7766351009805" lon="-73.99827684115846">
        <ele>0</ele>
        <time>2026-04-27T18:34:19.812Z</time>
      </trkpt>
      <trkpt lat="40.77620605929734" lon="-73.99845458561528">
        <ele>0</ele>
        <time>2026-04-27T18:34:38.452Z</time>
      </trkpt>
      <trkpt lat="40.77577701761417" lon="-73.9986323300721">
        <ele>0</ele>
        <time>2026-04-27T18:34:57.092Z</time>
      </trkpt>
      <trkpt lat="40.775347975931005" lon="-73.99881007452892">
        <ele>0</ele>
        <time>2026-04-27T18:35:15.732Z</time>
      </trkpt>
      <trkpt lat="40.77491893424784" lon="-73.99898781898575">
        <ele>0</ele>
        <time>2026-04-27T18:35:34.372Z</time>
      </trkpt>
      <trkpt lat="40.774489892564674" lon="-73.99916556344257">
        <ele>0</ele>
        <time>2026-04-27T18:35:53.012Z</time>
      </trkpt>
      <trkpt lat="40.77406085088151" lon="-73.9993433078994">
        <ele>0</ele>
        <time>2026-04-27T18:36:11.652Z</time>
      </trkpt>
      <trkpt lat="40.77363180919835" lon="-73.99952105235622">
        <ele>0</ele>
        <time>2026-04-27T18:36:30.292Z</time>
      </trkpt>
      <trkpt lat="40.77320276751518" lon="-73.99969879681304">
        <ele>0</ele>
        <time>2026-04-27T18:36:48.932Z</time>
      </trkpt>
      <trkpt lat="40.77277372583202" lon="-73.99987654126987">
        <ele>0</ele>
        <time>2026-04-27T18:37:07.572Z</time>
      </trkpt>
      <trkpt lat="40.772344684148855" lon="-74.00005428572669">
        <ele>0</ele>
        <time>2026-04-27T18:37:26.212Z</time>
      </trkpt>
      <trkpt lat="40.771915642465686" lon="-74.00023203018351">
        <ele>0</ele>
        <time>2026-04-27T18:37:44.852Z</time>
      </trkpt>
      <trkpt lat="40.771486600782524" lon="-74.00040977464033">
        <ele>0</ele>
        <time>2026-04-27T18:38:03.492Z</time>
      </trkpt>
      <trkpt lat="40.7713744161139" lon="-74.0004562507842">
        <ele>0</ele>
        <time>2026-04-27T18:38:08.366Z</time>
      </trkpt>
      <trkpt lat="40.771013486332194" lon="-74.0008103604981">
        <ele>0</ele>
        <time>2026-04-27T18:38:27.006Z</time>
      </trkpt>
      <trkpt lat="40.770652556550495" lon="-74.00116447021199">
        <ele>0</ele>
        <time>2026-04-27T18:38:45.646Z</time>
      </trkpt>
      <trkpt lat="40.77029162676879" lon="-74.00151857992589">
        <ele>0</ele>
        <time>2026-04-27T18:39:04.286Z</time>
      </trkpt>
      <trkpt lat="40.76993069698708" lon="-74.00187268963978">
        <ele>0</ele>
        <time>2026-04-27T18:39:22.926Z</time>
      </trkpt>
      <trkpt lat="40.76956976720538" lon="-74.00222679935368">
        <ele>0</ele>
        <time>2026-04-27T18:39:41.566Z</time>
      </trkpt>
      <trkpt lat="40.769208837423676" lon="-74.00258090906758">
        <ele>0</ele>
        <time>2026-04-27T18:40:00.206Z</time>
      </trkpt>
      <trkpt lat="40.76884790764197" lon="-74.00293501878147">
        <ele>0</ele>
        <time>2026-04-27T18:40:18.846Z</time>
      </trkpt>
      <trkpt lat="40.76848697786027" lon="-74.00328912849537">
        <ele>0</ele>
        <time>2026-04-27T18:40:37.486Z</time>
      </trkpt>
      <trkpt lat="40.768126048078564" lon="-74.00364323820926">
        <ele>0</ele>
        <time>2026-04-27T18:40:56.126Z</time>
      </trkpt>
      <trkpt lat="40.76776511829686" lon="-74.00399734792316">
        <ele>0</ele>
        <time>2026-04-27T18:41:14.766Z</time>
      </trkpt>
      <trkpt lat="40.76740418851516" lon="-74.00435145763706">
        <ele>0</ele>
        <time>2026-04-27T18:41:33.406Z</time>
      </trkpt>
      <trkpt lat="40.76704325873345" lon="-74.00470556735095">
        <ele>0</ele>
        <time>2026-04-27T18:41:52.046Z</time>
      </trkpt>
      <trkpt lat="40.766682328951745" lon="-74.00505967706485">
        <ele>0</ele>
        <time>2026-04-27T18:42:10.686Z</time>
      </trkpt>
      <trkpt lat="40.766321399170046" lon="-74.00541378677875">
        <ele>0</ele>
        <time>2026-04-27T18:42:29.326Z</time>
      </trkpt>
      <trkpt lat="40.76596046938834" lon="-74.00576789649264">
        <ele>0</ele>
        <time>2026-04-27T18:42:47.966Z</time>
      </trkpt>
      <trkpt lat="40.76563604873337" lon="-74.00608618695006">
        <ele>0</ele>
        <time>2026-04-27T18:43:04.721Z</time>
      </trkpt>
      <trkpt lat="40.765362438463974" lon="-74.00655731613084">
        <ele>0</ele>
        <time>2026-04-27T18:43:23.361Z</time>
      </trkpt>
      <trkpt lat="40.76508882819457" lon="-74.00702844531162">
        <ele>0</ele>
        <time>2026-04-27T18:43:42.001Z</time>
      </trkpt>
      <trkpt lat="40.764815217925175" lon="-74.00749957449241">
        <ele>0</ele>
        <time>2026-04-27T18:44:00.641Z</time>
      </trkpt>
      <trkpt lat="40.76454160765577" lon="-74.0079707036732">
        <ele>0</ele>
        <time>2026-04-27T18:44:19.281Z</time>
      </trkpt>
      <trkpt lat="40.764267997386376" lon="-74.00844183285398">
        <ele>0</ele>
        <time>2026-04-27T18:44:37.921Z</time>
      </trkpt>
      <trkpt lat="40.76399438711697" lon="-74.00891296203476">
        <ele>0</ele>
        <time>2026-04-27T18:44:56.561Z</time>
      </trkpt>
      <trkpt lat="40.76372077684758" lon="-74.00938409121554">
        <ele>0</ele>
        <time>2026-04-27T18:45:15.201Z</time>
      </trkpt>
      <trkpt lat="40.763447166578175" lon="-74.00985522039633">
        <ele>0</ele>
        <time>2026-04-27T18:45:33.841Z</time>
      </trkpt>
      <trkpt lat="40.76317355630878" lon="-74.01032634957711">
        <ele>0</ele>
        <time>2026-04-27T18:45:52.481Z</time>
      </trkpt>
      <trkpt lat="40.762899946039376" lon="-74.0107974787579">
        <ele>0</ele>
        <time>2026-04-27T18:46:11.121Z</time>
      </trkpt>
      <trkpt lat="40.76262633576998" lon="-74.01126860793867">
        <ele>0</ele>
        <time>2026-04-27T18:46:29.761Z</time>
      </trkpt>
      <trkpt lat="40.76241569048983" lon="-74.0116313177832">
        <ele>0</ele>
        <time>2026-04-27T18:46:44.112Z</time>
      </trkpt>
      <trkpt lat="40.76214488780121" lon="-74.01210524854054">
        <ele>0</ele>
        <time>2026-04-27T18:47:02.752Z</time>
      </trkpt>
      <trkpt lat="40.761874085112595" lon="-74.01257917929789">
        <ele>0</ele>
        <time>2026-04-27T18:47:21.392Z</time>
      </trkpt>
      <trkpt lat="40.76160328242398" lon="-74.01305311005522">
        <ele>0</ele>
        <time>2026-04-27T18:47:40.032Z</time>
      </trkpt>
      <trkpt lat="40.76133247973535" lon="-74.01352704081258">
        <ele>0</ele>
        <time>2026-04-27T18:47:58.672Z</time>
      </trkpt>
      <trkpt lat="40.76106167704673" lon="-74.01400097156991">
        <ele>0</ele>
        <time>2026-04-27T18:48:17.312Z</time>
      </trkpt>
      <trkpt lat="40.760790874358115" lon="-74.01447490232725">
        <ele>0</ele>
        <time>2026-04-27T18:48:35.952Z</time>
      </trkpt>
      <trkpt lat="40.76067340781452" lon="-74.01468048007928">
        <ele>0</ele>
        <time>2026-04-27T18:48:44.037Z</time>
      </trkpt>
      <trkpt lat="40.760330794042325" lon="-74.0150649552322">
        <ele>0</ele>
        <time>2026-04-27T18:49:02.677Z</time>
      </trkpt>
      <trkpt lat="40.75998818027012" lon="-74.01544943038513">
        <ele>0</ele>
        <time>2026-04-27T18:49:21.317Z</time>
      </trkpt>
      <trkpt lat="40.75964556649792" lon="-74.01583390553806">
        <ele>0</ele>
        <time>2026-04-27T18:49:39.957Z</time>
      </trkpt>
      <trkpt lat="40.75930295272572" lon="-74.01621838069099">
        <ele>0</ele>
        <time>2026-04-27T18:49:58.597Z</time>
      </trkpt>
      <trkpt lat="40.75905263874347" lon="-74.01649927864202">
        <ele>0</ele>
        <time>2026-04-27T18:50:12.215Z</time>
      </trkpt>
      <trkpt lat="40.75864105801949" lon="-74.01626019842827">
        <ele>0</ele>
        <time>2026-04-27T18:50:30.855Z</time>
      </trkpt>
      <trkpt lat="40.758229477295515" lon="-74.01602111821452">
        <ele>0</ele>
        <time>2026-04-27T18:50:49.495Z</time>
      </trkpt>
      <trkpt lat="40.75803963800601" lon="-74.01591084381324">
        <ele>0</ele>
        <time>2026-04-27T18:50:58.092Z</time>
      </trkpt>
      <trkpt lat="40.757973740908476" lon="-74.01532362203544">
        <ele>0</ele>
        <time>2026-04-27T18:51:16.732Z</time>
      </trkpt>
      <trkpt lat="40.75790784381095" lon="-74.01473640025763">
        <ele>0</ele>
        <time>2026-04-27T18:51:35.372Z</time>
      </trkpt>
      <trkpt lat="40.75787755645561" lon="-74.01446650377795">
        <ele>0</ele>
        <time>2026-04-27T18:51:43.939Z</time>
      </trkpt>
      <trkpt lat="40.75827587962479" lon="-74.0141910534438">
        <ele>0</ele>
        <time>2026-04-27T18:52:02.579Z</time>
      </trkpt>
      <trkpt lat="40.75867420279396" lon="-74.01391560310965">
        <ele>0</ele>
        <time>2026-04-27T18:52:21.219Z</time>
      </trkpt>
      <trkpt lat="40.75872848018682" lon="-74.01387806894856">
        <ele>0</ele>
        <time>2026-04-27T18:52:23.759Z</time>
      </trkpt>
      <trkpt lat="40.75883753880015" lon="-74.01445398309698">
        <ele>0</ele>
        <time>2026-04-27T18:52:42.399Z</time>
      </trkpt>
      <trkpt lat="40.758931079470045" lon="-74.01494795045637">
        <ele>0</ele>
        <time>2026-04-27T18:52:58.387Z</time>
      </trkpt>
      <trkpt lat="40.75848146488126" lon="-74.01493949717046">
        <ele>0</ele>
        <time>2026-04-27T18:53:17.027Z</time>
      </trkpt>
      <trkpt lat="40.75803185029246" lon="-74.01493104388454">
        <ele>0</ele>
        <time>2026-04-27T18:53:35.667Z</time>
      </trkpt>
      <trkpt lat="40.75758223570367" lon="-74.01492259059863">
        <ele>0</ele>
        <time>2026-04-27T18:53:54.307Z</time>
      </trkpt>
      <trkpt lat="40.75713262111488" lon="-74.01491413731272">
        <ele>0</ele>
        <time>2026-04-27T18:54:12.947Z</time>
      </trkpt>
      <trkpt lat="40.75668300652609" lon="-74.0149056840268">
        <ele>0</ele>
        <time>2026-04-27T18:54:31.587Z</time>
      </trkpt>
      <trkpt lat="40.75632457049383" lon="-74.01489894500557">
        <ele>0</ele>
        <time>2026-04-27T18:54:46.447Z</time>
      </trkpt>
      <trkpt lat="40.75589478550623" lon="-74.01472441271152">
        <ele>0</ele>
        <time>2026-04-27T18:55:05.087Z</time>
      </trkpt>
      <trkpt lat="40.755465000518626" lon="-74.01454988041748">
        <ele>0</ele>
        <time>2026-04-27T18:55:23.727Z</time>
      </trkpt>
      <trkpt lat="40.75503521553103" lon="-74.01437534812342">
        <ele>0</ele>
        <time>2026-04-27T18:55:42.367Z</time>
      </trkpt>
      <trkpt lat="40.75460543054343" lon="-74.01420081582937">
        <ele>0</ele>
        <time>2026-04-27T18:56:01.007Z</time>
      </trkpt>
      <trkpt lat="40.75458039646321" lon="-74.01419064968682">
        <ele>0</ele>
        <time>2026-04-27T18:56:02.092Z</time>
      </trkpt>
      <trkpt lat="40.754144162010164" lon="-74.014046682985">
        <ele>0</ele>
        <time>2026-04-27T18:56:20.732Z</time>
      </trkpt>
      <trkpt lat="40.75370792755712" lon="-74.01390271628317">
        <ele>0</ele>
        <time>2026-04-27T18:56:39.372Z</time>
      </trkpt>
      <trkpt lat="40.753271693104075" lon="-74.01375874958134">
        <ele>0</ele>
        <time>2026-04-27T18:56:58.012Z</time>
      </trkpt>
      <trkpt lat="40.752835458651035" lon="-74.01361478287951">
        <ele>0</ele>
        <time>2026-04-27T18:57:16.652Z</time>
      </trkpt>
      <trkpt lat="40.75239922419799" lon="-74.01347081617769">
        <ele>0</ele>
        <time>2026-04-27T18:57:35.292Z</time>
      </trkpt>
      <trkpt lat="40.752149005202085" lon="-74.01338823855613">
        <ele>0</ele>
        <time>2026-04-27T18:57:45.984Z</time>
      </trkpt>
      <trkpt lat="40.75199355526753" lon="-74.01283126010271">
        <ele>0</ele>
        <time>2026-04-27T18:58:04.624Z</time>
      </trkpt>
      <trkpt lat="40.751838105332986" lon="-74.0122742816493">
        <ele>0</ele>
        <time>2026-04-27T18:58:23.264Z</time>
      </trkpt>
      <trkpt lat="40.75168265539843" lon="-74.01171730319587">
        <ele>0</ele>
        <time>2026-04-27T18:58:41.904Z</time>
      </trkpt>
      <trkpt lat="40.75158166778044" lon="-74.01135546369143">
        <ele>0</ele>
        <time>2026-04-27T18:58:54.013Z</time>
      </trkpt>
      <trkpt lat="40.751518076227896" lon="-74.01076785576879">
        <ele>0</ele>
        <time>2026-04-27T18:59:12.653Z</time>
      </trkpt>
      <trkpt lat="40.751500619182536" lon="-74.01060654663652">
        <ele>0</ele>
        <time>2026-04-27T18:59:17.770Z</time>
      </trkpt>
    </trkseg>
  </trk>
</gpx>
